{
  "type": "FeatureCollection",
  "features": [
    {
      "type": "Feature",
      "properties": {
        "name": "Southwest 92nd Street",
        "address": "8455, 8441 and 8501 Southwest 92nd Street",
        "developer": "Capital Partners",
        "description": "Commercial zoning proposal to allow 60 units per acre, or 75 units across three stories on the 2.7-acre site"
      },
      "geometry": {
        "type": "Point",
        "coordinates": [
          -80.33260478095436,
          25.68479434388687
        ]
      }
    },
    {
      "type": "Feature",
      "properties": {
        "name": "Continental Flats",
        "address": "8445 Southwest 94th Street",
        "developer": "Capital Partners",
        "description": "Five-story apartment complex with 42 units, eight designated as workforce housing, on 0.9-acre site"
      },
      "geometry": {
        "type": "Point",
        "coordinates": [
          -80.33218228284152,
          25.683247373474593
        ]
      }
    },
    {
      "type": "Feature",
      "properties": {
        "name": "Southwest 94th Street",
        "address": "8401 Southwest 94th Street",
        "developer": "Serralta Family Trust",
        "description": "Three-story, 67-unit apartment building proposed a 1.5-acre site now home to a 3,300-square-foot single-family home"
      },
      "geometry": {
        "type": "Point",
        "coordinates": [
          -80.33165373051864,
          25.68329931876959
        ]
      }
    },
    {
      "type": "Feature",
      "properties": {
        "name": "Southwest 84th Avenue",
        "address": "9202, 9232 and 9262 Southwest 84th Avenue",
        "developer": "Cape Summit 69 Holdings LLC",
        "description": "Three-story, 79-unit apartment project proposed on a vacant 1.5-acre site"
      },
      "geometry": {
        "type": "Point",
        "coordinates": [
          -80.33172195883755,
          25.6840867471195
        ]
      }
    }
  ]
}
