{
  "type": "FeatureCollection",
  "features": [
    {
      "type": "Feature",
      "properties": {
        "n": 1,
        "project": "FAT Village",
        "address": "501 North Andrews Avenue",
        "developers": "Hines in partnership with Urban Street Development",
        "caption": "FAT Village is a 5.6-acre mixed-use development anchored by a 180,000-square-foot office building. The $500 million project will include residential units as well as entertainment, retail and public space.",
        "story": ""
      },
      "geometry": {
        "type": "Point",
        "coordinates": [
          -80.14393853289444,
          26.12822159153225
        ]
      }
    },
    {
      "type": "Feature",
      "properties": {
        "n": 2,
        "project": "Viceroy Residences Fort Lauderdale",
        "address": "505 Northeast 2nd Street",
        "developers": "Naftali Group",
        "caption": "Viceroy Residences Fort Lauderdale is the second-largest project Naftali Group is working on in South Florida. The 45-story tower is in pre-sales with completion expected around 2030.",
        "story": ""
      },
      "geometry": {
        "type": "Point",
        "coordinates": [
          -80.13851386173063,
          26.124802863265273
        ]
      }
    },
    {
      "type": "Feature",
      "properties": {
        "n": 3,
        "project": "Ombelle Fort Lauderdale",
        "address": "300 Northeast 3rd Avenue",
        "developers": "Dependable Equities",
        "caption": "Ombelle Fort Lauderdale includes two 44-story residential towers spanning 1.6 million square feet. Completion for the 774-unit project is slated for the end of 2028.",
        "story": ""
      },
      "geometry": {
        "type": "Point",
        "coordinates": [
          -80.14032281755028,
          26.125563263655735
        ]
      }
    },
    {
      "type": "Feature",
      "properties": {
        "n": 4,
        "project": "Astor Park Flagler Village",
        "address": "333 Northeast 6th Street",
        "developers": "Midtown Capital Partners",
        "caption": "Midtown Capital Partners secured an $84 million construction bridge loan to complete Astor Park Flagler Village, a 12-story, two-tower development with 252 residential units and ground-floor retail space.",
        "story": ""
      },
      "geometry": {
        "type": "Point",
        "coordinates": [
          -80.14000346173034,
          26.13022999094221
        ]
      }
    },
    {
      "type": "Feature",
      "properties": {
        "n": 5,
        "project": "Flats Flagler Gateway",
        "address": "745 North Andrews Avenue",
        "developers": "CEDARst Companies",
        "caption": "Flats Flagler Gateway will bring another 12-story residential tower to Flagler Village. CEDARst Companies secured a $68.5 million construction loan for the 350,000-square-foot development, which is expected to wrap mid-2028.",
        "story": ""
      },
      "geometry": {
        "type": "Point",
        "coordinates": [
          -80.14445499056637,
          26.133403674468244
        ]
      }
    },
    {
      "type": "Feature",
      "properties": {
        "n": 6,
        "project": "Urbania Flagler 1st Ave",
        "address": "626 Northeast 1st Avenue",
        "developers": "Continua Developments and SP Developments",
        "caption": "Urbania Flagler 1st Ave is a multifamily development that will include 115 units, 137 parking spaces and 3,875 square feet of ground-floor commercial space. The project is projected to finish next year.",
        "story": ""
      },
      "geometry": {
        "type": "Point",
        "coordinates": [
          -80.14267233289432,
          26.130992980036584
        ]
      }
    }
  ]
}
