{
  "type": "FeatureCollection",
  "features": [
    {
      "type": "Feature",
      "properties": {
        "n": 1,
        "name": "Frida Kahlo Residences",
        "address": "119 Northwest 29th Street",
        "owner": "PMG and LNDMRK Development",
        "details": "244 furnished short-term rental friendly condos across two towers (eight and 14 stories), deeded office suites in select units, Baker Health wellness center. World's first Frida Kahlo-branded residential tower.",
        "type": "condo",
        "status": "pre-construction; active sales",
        "retail": false
      },
      "geometry": {
        "type": "Point",
        "coordinates": [
          -80.197701,
          25.804308
        ]
      }
    },
    {
      "type": "Feature",
      "properties": {
        "n": 2,
        "name": "Mohawk at Wynwood",
        "address": "56 Northeast 29th Street",
        "owner": "Rilea Group",
        "details": "12-story, 300-unit multifamily project with ground-floor retail and rooftop amenities",
        "type": "mixed-use apartment with retail",
        "status": "under construction; completion slated for 2028",
        "retail": false
      },
      "geometry": {
        "type": "Point",
        "coordinates": [
          -80.193718,
          25.803653
        ]
      }
    },
    {
      "type": "Feature",
      "properties": {
        "n": 3,
        "name": "The Rider Residences",
        "address": "94 Northeast 29th Street",
        "owner": "Rilea Group",
        "details": "12-story, boutique furnished, short-term rental friendly condo project with over 145 residences, rooftop amenities and a private beach club",
        "type": "mixed-use condo with retail",
        "status": "under construction; active sales",
        "retail": false
      },
      "geometry": {
        "type": "Point",
        "coordinates": [
          -80.193081,
          25.803738
        ]
      }
    },
    {
      "type": "Feature",
      "properties": {
        "n": 4,
        "name": "NoMad Residences Wynwood",
        "address": "2700 Northwest 2nd Avenue",
        "owner": "Related Group, Tricap and Sydell Group",
        "details": "Nine-story NoMad-branded residential project with 329 short-term rental friendly condos. It's the first residential building of the NoMad Hotels brand.",
        "type": "mixed-use condo with retail",
        "status": "completed May 2026",
        "retail": false
      },
      "geometry": {
        "type": "Point",
        "coordinates": [
          -80.199494,
          25.802354
        ]
      }
    },
    {
      "type": "Feature",
      "properties": {
        "n": 5,
        "name": "DUOS Wynwood",
        "address": "335 Northwest 28th Street",
        "owner": "Wave Group Development, Vitrium Capital and Zambala Luxury Apartments",
        "details": "Eight-story, 49 hotel-condos purpose-built for short-term rentals",
        "type": "hotel-condo",
        "status": "active sales",
        "retail": false
      },
      "geometry": {
        "type": "Point",
        "coordinates": [
          -80.201873,
          25.803072
        ]
      }
    },
    {
      "type": "Feature",
      "properties": {
        "n": 6,
        "name": "Twenty Sixth & 2nd Wynwood Residences",
        "address": "2600 Northwest 2nd Avenue",
        "owner": "PMG and LNDMRK Development",
        "details": "Eight-story, 233-unit condo project with 32,000 square feet of amenities and 26,000 square feet of ground-floor retail",
        "type": "mixed-use condo with retail",
        "status": "construction started May 2026",
        "retail": false
      },
      "geometry": {
        "type": "Point",
        "coordinates": [
          -80.199297,
          25.801652
        ]
      }
    },
    {
      "type": "Feature",
      "properties": {
        "n": 7,
        "name": "Amara Wynwood",
        "address": "45 Northeast 27th Street",
        "owner": "PGIM Real Estate and Fifield Companies",
        "details": "Eight-story, 210-unit mixed-use multifamily project with 11,000 square feet of retail",
        "type": "mixed-use apartments with retail",
        "status": "completed May 2025",
        "retail": false
      },
      "geometry": {
        "type": "Point",
        "coordinates": [
          -80.193737,
          25.802858
        ]
      }
    },
    {
      "type": "Feature",
      "properties": {
        "n": 8,
        "name": "Hyatt Centric Wynwood",
        "address": "160 Northwest 28th Street",
        "owner": "Robert Finvarb Companies and The Restaurant People",
        "details": "Eight-story, 116-room Hyatt Centric with 2,000 square feet of meeting space, a 5,900-square-foot ground-floor restaurant, rooftop pool, and 3,000-square-foot rooftop bar and lounge",
        "type": "hotel",
        "status": "planned",
        "retail": false
      },
      "geometry": {
        "type": "Point",
        "coordinates": [
          -80.198351,
          25.802782
        ]
      }
    },
    {
      "type": "Feature",
      "properties": {
        "n": 9,
        "name": "Joule House",
        "address": "2200 Northwest 1st Avenue",
        "owner": "Fisher Brothers",
        "details": "Eight-story mixed-use development with 308 apartments, 26,000 square feet of ground-floor retail and paseo space, and 25,000 square feet of indoor and outdoor amenities",
        "type": "mixed-use apartment with retail",
        "status": "completed June 2025",
        "retail": false
      },
      "geometry": {
        "type": "Point",
        "coordinates": [
          -80.197097,
          25.798319
        ]
      }
    },
    {
      "type": "Feature",
      "properties": {
        "n": 10,
        "name": "2000 Wynwood",
        "address": "2000 North Miami Avenue",
        "owner": "Clearline Real Estate",
        "details": "12-story, 380,000-square-foot mixed-use development with 310 apartments, 12,500 square feet of ground-floor retail and 308 parking spaces",
        "type": "mixed-use apartments with retail",
        "status": "topped out March 2026",
        "retail": false
      },
      "geometry": {
        "type": "Point",
        "coordinates": [
          -80.195265,
          25.79573
        ]
      }
    },
    {
      "type": "Feature",
      "properties": {
        "n": 11,
        "name": "Gibson Garage",
        "address": "2660 Northwest 3rd Avenue",
        "owner": "Goldman Properties",
        "details": "More than 8,000-square-foot music retail and experience space with 500+ instruments. This is Gibson's third Gibson Garage location.",
        "type": "retail",
        "status": "opened September 2026",
        "retail": true
      },
      "geometry": {
        "type": "Point",
        "coordinates": [
          -80.201273,
          25.801887
        ]
      }
    },
    {
      "type": "Feature",
      "properties": {
        "n": 12,
        "name": "Gymshark",
        "address": "2050 North Miami Avenue",
        "owner": "Third Point and Kar Properties",
        "details": "19,700-square-foot, single-story retail building leased by Gymshark on a 10-year term with a five-year renewal option",
        "type": "retail",
        "status": "leased / opening planned",
        "retail": true
      },
      "geometry": {
        "type": "Point",
        "coordinates": [
          -80.195144,
          25.796424
        ]
      }
    },
    {
      "type": "Feature",
      "properties": {
        "n": 13,
        "name": "Sensa",
        "address": "2830 Northwest 5th Avenue",
        "owner": "Alex Kleyner and Diana Ulis",
        "details": "Nearly 20,000-square-foot wellness destination with thermal bathhouse, medspa, health/longevity services and style bar",
        "type": "retail",
        "status": "opening fall 2026",
        "retail": true
      },
      "geometry": {
        "type": "Point",
        "coordinates": [
          -80.203755,
          25.803453
        ]
      }
    },
    {
      "type": "Feature",
      "properties": {
        "n": 14,
        "name": "Wynwood One",
        "address": "145 Northwest 30th Street",
        "owner": "Brick Lane",
        "details": "Six-story, 70-unit apartment-hotel with rooftop pool deck, fitness, lounge and conference facilities, plus four bays of micro-retail. According to LoopNet, the site is fully entitled and the project advanced through the permitting process, but the site is now being marketed for sale for $7.95 million.",
        "type": "mixed-use apartment-hotel with retail",
        "status": "fully entitled / permit-advanced, site marketed for sale",
        "retail": false
      },
      "geometry": {
        "type": "Point",
        "coordinates": [
          -80.198213,
          25.805089
        ]
      }
    },
    {
      "type": "Feature",
      "properties": {
        "n": 15,
        "name": "Wynwood Tower",
        "address": "330, 334, 344 and 356 Northwest 37th Street",
        "owner": "AG Wyn (managed by Alex Guerrero and Ruben Rodriguez)",
        "details": "Proposed 41-story Live Local Act tower with 234 apartments, including 94 workforce/affordable units",
        "type": "apartments",
        "status": "proposed / planning",
        "retail": false
      },
      "geometry": {
        "type": "Point",
        "coordinates": [
          -80.202402,
          25.810771
        ]
      }
    },
    {
      "type": "Feature",
      "properties": {
        "n": 16,
        "name": "LIVWRK Wynwood",
        "address": "2400-2418 North Miami Avenue",
        "owner": "LIVWRK",
        "details": "Three 45-story residential towers with 1,363 apartments, totaling 1.8 million square feet with 40 percent of the units planned as workforce housing under Florida’s Live Local Act",
        "type": "apartments",
        "status": "planned",
        "retail": false
      },
      "geometry": {
        "type": "Point",
        "coordinates": [
          -80.195212,
          25.800023
        ]
      }
    },
    {
      "type": "Feature",
      "properties": {
        "n": 17,
        "name": "Rosee Wynwood",
        "address": "3223 Northwest 5th Avenue",
        "owner": "Norwyn Development and Charles Benson",
        "details": "Six-story, 140-unit condo project with over 10,000 square feet of retail and amenities including a rooftop pool, running track, fitness center and pickleball and padel courts",
        "type": "mixed-use condo with retail",
        "status": "pre-construction",
        "retail": false
      },
      "geometry": {
        "type": "Point",
        "coordinates": [
          -80.203141,
          25.807058
        ]
      }
    },
    {
      "type": "Feature",
      "properties": {
        "n": 18,
        "name": "West Elm",
        "address": "Northwest 28th Street and Northwest 3rd Avenue",
        "owner": "Related Group, Torose Equities and LNDMRK",
        "details": "Over 12,400-square-foot lease spanning six combined storefronts at The Dorsey Wynwood",
        "type": "retail",
        "status": "opened in February 2026",
        "retail": true
      },
      "geometry": {
        "type": "Point",
        "coordinates": [
          -80.201181,
          25.802848
        ]
      }
    },
    {
      "type": "Feature",
      "properties": {
        "n": 19,
        "name": "Wynwood Plaza",
        "address": "55-95 Northwest 29th Street",
        "owner": "L&L Holding Company, Oak Row Equities, Shorenstein Properties and Claure Group",
        "details": "1 million-square-foot mixed-use campus featuring 509 apartments, a 266,000-square-foot office tower, 25,000 square feet of retail and a 26,000-square-foot public plaza",
        "type": "mixed-use apartments with office and retail",
        "status": "completed October 2025",
        "retail": false
      },
      "geometry": {
        "type": "Point",
        "coordinates": [
          -80.196592,
          25.804173
        ]
      }
    },
    {
      "type": "Feature",
      "properties": {
        "n": 20,
        "name": "Cloud One Hotel & Residences",
        "address": "2215 Northwest First Place",
        "owner": "Sebastian Lüdke of ALP.X Group, Motel One and Ralf Büschl of the Büschl Group",
        "details": "Eight-story building with 214 hotel rooms and 85 condos including 15 duplex penthouses, rooftop swimming pool and deck with food and beverage service, indoor-outdoor restaurant and bar, and a fitness center with a dedicated outdoor yoga area, steam room and sauna. German lifestyle hotel brand’s first ground-up development in the U.S.",
        "type": "hotel-condo",
        "status": "active sales",
        "retail": false
      },
      "geometry": {
        "type": "Point",
        "coordinates": [
          -80.19834,
          25.798512
        ]
      }
    },
    {
      "type": "Feature",
      "properties": {
        "n": 21,
        "name": "Diesel Wynwood",
        "address": "148 Northwest 28th Street",
        "owner": "Block Capital and Bel-Invest Group",
        "details": "Eight stories with 159 condos featuring electric vehicle charging stations, bicycle storage, a rooftop pool deck, lounge, a spa, event space and a climate-controlled wine cellar",
        "type": "condo",
        "status": "active sales, 70 percent presold as of 2023",
        "retail": false
      },
      "geometry": {
        "type": "Point",
        "coordinates": [
          -80.19809,
          25.802773
        ]
      }
    },
    {
      "type": "Feature",
      "properties": {
        "n": 22,
        "name": "Casa Tua Cucina",
        "address": "Northwest 27th Terrace and Northwest Second Avenue",
        "owner": "Related Group (developer) Sunny Isles Beach-based LLC led by Hernan Gleizer and Fernando Alpern (owner)",
        "details": "18,500-square-foot ground-floor retail at the NoMad Residences Wynwood that covers 13,500 square feet of indoor space plus a 5,000-square-foot outdoor terrace",
        "type": "retail",
        "status": "lease signed 2022, opened 2026, space acquired 2026",
        "retail": true
      },
      "geometry": {
        "type": "Point",
        "coordinates": [
          -80.19916,
          25.802553
        ]
      }
    }
  ]
}
