{
 "type": "FeatureCollection",
 "features": [
  {
   "type": "Feature",
   "properties": {
    "prop_id": "190874",
    "address": "56 East Ave.",
    "zip": "78701",
    "status": "Sold",
    "val_2026": 32109781,
    "owner": "WMRE VENTURES 56 EAST LLC",
    "np_entity": "WC 56 EAST AVENUE LLC",
    "deed_date": "2019-03-20",
    "prop_type": "Real property",
    "note": "Nate Paul acquired this single-story building in Austin's Rainey Street District through a World Class-affiliated company in 2015. After multiple bankruptcies, Paul sold it an entity associated with investment firm WM Capital Partners in 2025.",
    "approx": false,
    "spread": false,
    "r": 22.0
   },
   "geometry": {
    "type": "Point",
    "coordinates": [
     -97.738508,
     30.257177
    ]
   }
  },
  {
   "type": "Feature",
   "properties": {
    "prop_id": "191603",
    "address": "707 E. Cesar Chavez St.",
    "zip": "78702",
    "status": "Sold at foreclosure auction",
    "val_2026": 25160436,
    "owner": "1205 1/2 W 5TH LLC & BUTLER 707 CC LLC & RR IHOP LP",
    "np_entity": "WC 707 CESAR CHAVEZ LLC",
    "deed_date": "2016-11-17",
    "prop_type": "Real property",
    "note": "Home to IHOP since 1993, Nate Paul acquired the property through a World Class-affiliated company in 2017. It was sold in a foreclosure auction in May to an entity associated with local business owners Rickey and Karen McGee.",
    "approx": false,
    "spread": false,
    "r": 20.05
   },
   "geometry": {
    "type": "Point",
    "coordinates": [
     -97.737379,
     30.26095
    ]
   }
  },
  {
   "type": "Feature",
   "properties": {
    "prop_id": "176237",
    "address": "13376 N. US Hwy 183",
    "zip": "78750",
    "status": "Owned by Paul-affiliated entity",
    "val_2026": 12773473,
    "owner": "WC GALLERIA OAKS CENTER LLC",
    "np_entity": "WC GALLERIA OAKS CENTER LLC",
    "deed_date": "2018-01-31",
    "prop_type": "Real property",
    "note": "Nate Paul bought this cluster of retail buildings in North Austin through a World Class-affiliated company in 2013. The property was scheduled for a Nov. 2025 foreclosure auction, but was postponed.",
    "approx": false,
    "spread": false,
    "r": 15.72
   },
   "geometry": {
    "type": "Point",
    "coordinates": [
     -97.787302,
     30.443804
    ]
   }
  },
  {
   "type": "Feature",
   "properties": {
    "prop_id": "483325",
    "address": "7620 Metro Center Dr.",
    "zip": "78744",
    "status": "Owned by Paul-affiliated entity",
    "val_2026": 10828638,
    "owner": "MET CENTER PORTFOLIO LLC",
    "np_entity": "MET CENTER PORTFOLIO LLC",
    "deed_date": "2022-09-16",
    "prop_type": "Real property",
    "note": "Nate Paul acquired this Southeast Austin property through a World Class-affiliated company in 2018. He transferred it to a new shell company, Rising Tide Investments, in 2022, and to Met Center Portfolio a few months after that.",
    "approx": false,
    "spread": false,
    "r": 14.87
   },
   "geometry": {
    "type": "Point",
    "coordinates": [
     -97.692314,
     30.216276
    ]
   }
  },
  {
   "type": "Feature",
   "properties": {
    "prop_id": "191815",
    "address": "501 Waller St.",
    "zip": "78702",
    "status": "Sold",
    "val_2026": 7090402,
    "owner": "WMRE VENTURES 5TH & WALLER LLC",
    "np_entity": "WC 5TH & WALLER LLC",
    "deed_date": "2017-09-19",
    "prop_type": "Real property",
    "note": "Nate Paul acquired this East Austin property through a World Class-affiliated company in 2017, and sold it to an entity associated with investment firm WM Capital Partners in 2025.",
    "approx": false,
    "spread": false,
    "r": 12.99
   },
   "geometry": {
    "type": "Point",
    "coordinates": [
     -97.730383,
     30.263627
    ]
   }
  },
  {
   "type": "Feature",
   "properties": {
    "prop_id": "509199",
    "address": "2101 W. Ben White Blvd.",
    "zip": "78745",
    "status": "Owned by Paul-affiliated entity",
    "val_2026": 7008907,
    "owner": "WC 2101 W BEN WHITE LP",
    "np_entity": "WC 2101 W BEN WHITE LP",
    "deed_date": "2008-12-12",
    "prop_type": "Real property",
    "note": "A World Class-affiliated company bought this building, home to a Popeyes and a Bingo hall, in 2008.",
    "approx": false,
    "spread": false,
    "r": 12.94
   },
   "geometry": {
    "type": "Point",
    "coordinates": [
     -97.790527,
     30.230158
    ]
   }
  },
  {
   "type": "Feature",
   "properties": {
    "prop_id": "509198",
    "address": "2117 W. Ben White Blvd.",
    "zip": "78745",
    "status": "Owned by Paul-affiliated entity",
    "val_2026": 6485322,
    "owner": "WC 2101 W BEN WHITE LP",
    "np_entity": "WC 2101 W BEN WHITE LP",
    "deed_date": "2008-12-12",
    "prop_type": "Real property",
    "note": "A World Class-affiliated company bought this building, home to a Taco Cabana and Dollar General, in 2008.",
    "approx": false,
    "spread": false,
    "r": 12.64
   },
   "geometry": {
    "type": "Point",
    "coordinates": [
     -97.791437,
     30.230588
    ]
   }
  },
  {
   "type": "Feature",
   "properties": {
    "prop_id": "189103",
    "address": "1808 E. Cesar Chavez St.",
    "zip": "78702",
    "status": "Sold at foreclosure auction",
    "val_2026": 5515162,
    "owner": "3423 1700 CESAR CHAVEZ LLC",
    "np_entity": "1800 CESAR CHAVEZ LLC",
    "deed_date": "2019-08-12",
    "prop_type": "Real property",
    "note": "Nate Paul acquired this property, which once a craft cocktail bar, through a World Class-affiliated company in 2019. Bridge lender Equity Secured Investments scooped it up at a foreclosure auction in Dec. 2025, selling it to a company associated with Austin-based developer Peter Barlin in July.",
    "approx": false,
    "spread": false,
    "r": 12.05
   },
   "geometry": {
    "type": "Point",
    "coordinates": [
     -97.725038,
     30.257405
    ]
   }
  },
  {
   "type": "Feature",
   "properties": {
    "prop_id": "196854",
    "address": "303 W. 9th St.",
    "zip": "78701",
    "status": "Sold at foreclosure, then bought back",
    "val_2026": 5101152,
    "owner": "814 LAVACA LLC",
    "np_entity": "814 LAVACA LLC",
    "deed_date": "2024-09-17",
    "prop_type": "Real property",
    "note": "Nate Paul bought this historic, three-building Downtown Austin estate, known as the Hirshfeld-Moore property, in 2018. Investment firm Congress Avenue Holdings bought it out of foreclosure in 2021, and Nate Paul bought it back through a World Class-affiliated company in 2024.",
    "approx": false,
    "spread": false,
    "r": 11.78
   },
   "geometry": {
    "type": "Point",
    "coordinates": [
     -97.744566,
     30.271377
    ]
   }
  },
  {
   "type": "Feature",
   "properties": {
    "prop_id": "194466",
    "address": "222 E. 6th St.",
    "zip": "78701",
    "status": "Owned by Paul-affiliated entity",
    "val_2026": 4529026,
    "owner": "222 EAST 6TH LLC",
    "np_entity": "222 EAST 6TH LLC",
    "deed_date": "2022-09-16",
    "prop_type": "Real property",
    "note": "Nate Paul bought this Sixth Street property through a World Class-affiliated company in 2011.",
    "approx": false,
    "spread": false,
    "r": 11.38
   },
   "geometry": {
    "type": "Point",
    "coordinates": [
     -97.740509,
     30.267708
    ]
   }
  },
  {
   "type": "Feature",
   "properties": {
    "prop_id": "874672",
    "address": "11530 Menchaca Rd. #3",
    "zip": "78748",
    "status": "Owned by Paul-affiliated entity",
    "val_2026": 4280389,
    "owner": "11530 MENCHACA ROAD LLC",
    "np_entity": "11530 MENCHACA ROAD LLC",
    "deed_date": "",
    "prop_type": "Real property",
    "note": "A World Class-affiliated company bought this South Austin property in 2022.",
    "approx": false,
    "spread": true,
    "r": 11.21
   },
   "geometry": {
    "type": "Point",
    "coordinates": [
     -97.834612,
     30.152397
    ]
   }
  },
  {
   "type": "Feature",
   "properties": {
    "prop_id": "190944",
    "address": "901 E. Cesar Chavez St.",
    "zip": "78702",
    "status": "Sold at foreclosure auction",
    "val_2026": 3500000,
    "owner": "AVIARI OPERATIONS LLC",
    "np_entity": "901 EAST CESAR CHAVEZ LLC",
    "deed_date": "2024-12-04",
    "prop_type": "Real property",
    "note": "Nate Paul bought this 20,000-square-foot commercial pad site in Downtown Austin through a World Class-affiliated company in 2018. The company filed for bankruptcy in 2020. In 2022, a Karlin-affiliated company bought the property out of foreclosure, then selling it to Uber in May.",
    "approx": false,
    "spread": false,
    "r": 10.61
   },
   "geometry": {
    "type": "Point",
    "coordinates": [
     -97.735453,
     30.260573
    ]
   }
  },
  {
   "type": "Feature",
   "properties": {
    "prop_id": "103952",
    "address": "511 Barton Blvd.",
    "zip": "78704",
    "status": "Owned by Paul-affiliated entity",
    "val_2026": 3339919,
    "owner": "511 BARTON BLVD LLC",
    "np_entity": "511 BARTON BLVD LLC",
    "deed_date": "2022-09-16",
    "prop_type": "Real property",
    "note": "Nate Paul bought this 2,600-square-foot Zilker home at an auction in 2018 for $4.3 million.",
    "approx": false,
    "spread": false,
    "r": 10.48
   },
   "geometry": {
    "type": "Point",
    "coordinates": [
     -97.764401,
     30.263347
    ]
   }
  },
  {
   "type": "Feature",
   "properties": {
    "prop_id": "196853",
    "address": "307 W. 9th St.",
    "zip": "78701",
    "status": "Sold at foreclosure, then bought back",
    "val_2026": 2955324,
    "owner": "814 LAVACA LLC",
    "np_entity": "814 LAVACA LLC",
    "deed_date": "2024-09-17",
    "prop_type": "Real property",
    "note": "Nate Paul bought this small plot of land adjacent to the Hirshfeld-Moore property at the same time that he bought the main lot in 2018. Investment firm Congress Avenue Holdings bought it out of foreclosure in 2021, and Nate Paul bought it back through a World Class-affiliated company in 2024.",
    "approx": false,
    "spread": false,
    "r": 10.16
   },
   "geometry": {
    "type": "Point",
    "coordinates": [
     -97.744832,
     30.271439
    ]
   }
  },
  {
   "type": "Feature",
   "properties": {
    "prop_id": "191645",
    "address": "809 E. 6th St.",
    "zip": "78702",
    "status": "Sold at foreclosure auction",
    "val_2026": 2385000,
    "owner": "809 E 6TH ST LLC",
    "np_entity": "805-809 EAST 6TH LLC",
    "deed_date": "2024-12-04",
    "prop_type": "Real property",
    "note": "Nate Paul acquired this retail property in Downtown Austin, which houses a liquor store and a former record store, through a World Class-affiliated company in 2018. A company affiliated with Karlin bought it out of foreclosure in 2021. Following a years-long legal dispute with Paul, Karlin sold the property to a company owned by Kegan and Victoria Rodrigues.",
    "approx": false,
    "spread": false,
    "r": 9.63
   },
   "geometry": {
    "type": "Point",
    "coordinates": [
     -97.733799,
     30.265329
    ]
   }
  },
  {
   "type": "Feature",
   "properties": {
    "prop_id": "874670",
    "address": "11530 Menchaca Rd. #1",
    "zip": "78748",
    "status": "Owned by Paul-affiliated entity",
    "val_2026": 1378560,
    "owner": "11530 MENCHACA ROAD LLC",
    "np_entity": "11530 MENCHACA ROAD LLC",
    "deed_date": "",
    "prop_type": "Real property",
    "note": "Nate Paul bought this South Austin property through a World Class-affiliated company in 2022.",
    "approx": false,
    "spread": true,
    "r": 8.52
   },
   "geometry": {
    "type": "Point",
    "coordinates": [
     -97.834955,
     30.152568
    ]
   }
  },
  {
   "type": "Feature",
   "properties": {
    "prop_id": "190955",
    "address": "806 Willow St.",
    "zip": "78702",
    "status": "Sold at foreclosure auction",
    "val_2026": 1171710,
    "owner": "KAPADIA DYNASTY TRUST",
    "np_entity": "901 EAST CESAR CHAVEZ LLC",
    "deed_date": "2024-12-04",
    "prop_type": "Real property",
    "note": "Nate Paul acquired this empty plot of land just east of Downtown Austin through a World Class-affiliated company in 2018. A company affiliated with Karlin bought it out of foreclosure in 2021. Following a years-long legal dispute with Paul, Karlin sold the property to Kapadia Dynasty Trust in July.",
    "approx": false,
    "spread": false,
    "r": 8.25
   },
   "geometry": {
    "type": "Point",
    "coordinates": [
     -97.735885,
     30.260306
    ]
   }
  },
  {
   "type": "Feature",
   "properties": {
    "prop_id": "194594",
    "address": "720 Red River St.",
    "zip": "78701",
    "status": "Owned by Paul-affiliated entity",
    "val_2026": 793000,
    "owner": "WC 720 RED RIVER LP",
    "np_entity": "WC 720 RED RIVER LP",
    "deed_date": "2013-08-30",
    "prop_type": "Real property",
    "note": "Nate Paul bought this Downtown Austin property through a World Class-affiliated company in 2013.",
    "approx": false,
    "spread": false,
    "r": 7.67
   },
   "geometry": {
    "type": "Point",
    "coordinates": [
     -97.73677,
     30.268261
    ]
   }
  },
  {
   "type": "Feature",
   "properties": {
    "prop_id": "874671",
    "address": "11530 Menchaca Rd. #2",
    "zip": "78748",
    "status": "Owned by Paul-affiliated entity",
    "val_2026": 692631,
    "owner": "11530 MENCHACA ROAD LLC",
    "np_entity": "11530 MENCHACA ROAD LLC",
    "deed_date": "",
    "prop_type": "Real property",
    "note": "Nate Paul bought this South Austin property through a World Class-affiliated company in 2022.",
    "approx": false,
    "spread": true,
    "r": 7.5
   },
   "geometry": {
    "type": "Point",
    "coordinates": [
     -97.834955,
     30.152226
    ]
   }
  },
  {
   "type": "Feature",
   "properties": {
    "prop_id": "161713",
    "address": "Rocky Ridge Rd.",
    "zip": "78734",
    "status": "Owned by Paul-affiliated entity",
    "val_2026": 634500,
    "owner": "WC PARADISE COVE MARINA LP",
    "np_entity": "WC PARADISE COVE MARINA LP",
    "deed_date": "2009-05-22",
    "prop_type": "Real property",
    "note": "Nate Paul bought this West Austin lakeshore property, part of an assemblage that houses a marina on Lake Travis, through a World Class-affiliated company in 2009.",
    "approx": true,
    "spread": true,
    "r": 7.39
   },
   "geometry": {
    "type": "Point",
    "coordinates": [
     -97.93415,
     30.42067
    ]
   }
  },
  {
   "type": "Feature",
   "properties": {
    "prop_id": "190954",
    "address": "900 Willow St.",
    "zip": "78702",
    "status": "Sold at foreclosure auction",
    "val_2026": 553308,
    "owner": "KAPADIA DYNASTY TRUST",
    "np_entity": "901 EAST CESAR CHAVEZ LLC",
    "deed_date": "2024-12-04",
    "prop_type": "Real property",
    "note": "Nate Paul acquired this empty plot of land just east of Downtown Austin through a World Class-affiliated company in 2018. A company affiliated with Karlin bought it out of foreclosure in 2021. Following a years-long legal dispute with Paul, Karlin sold the property to Kapadia Dynasty Trust in July.",
    "approx": false,
    "spread": false,
    "r": 7.23
   },
   "geometry": {
    "type": "Point",
    "coordinates": [
     -97.735746,
     30.26026
    ]
   }
  },
  {
   "type": "Feature",
   "properties": {
    "prop_id": "161689",
    "address": "17143 Rocky Ridge Rd.",
    "zip": "78734",
    "status": "Owned by Paul-affiliated entity",
    "val_2026": 435111,
    "owner": "ROCKY RIDGE RESIDENTIAL LLC",
    "np_entity": "ROCKY RIDGE RESIDENTIAL LLC",
    "deed_date": "2014-05-06",
    "prop_type": "Real property",
    "note": "Nate Paul bought this West Austin lakeshore property, part of an assemblage that houses a marina on Lake Travis, through a World Class-affiliated company in 2014.",
    "approx": false,
    "spread": false,
    "r": 6.98
   },
   "geometry": {
    "type": "Point",
    "coordinates": [
     -97.945496,
     30.422604
    ]
   }
  },
  {
   "type": "Feature",
   "properties": {
    "prop_id": "161688",
    "address": "17145 Rocky Ridge Rd. #2",
    "zip": "78734",
    "status": "Owned by Paul-affiliated entity",
    "val_2026": 376629,
    "owner": "ROCKY RIDGE RESIDENTIAL LLC",
    "np_entity": "ROCKY RIDGE RESIDENTIAL LLC",
    "deed_date": "2014-05-06",
    "prop_type": "Real property",
    "note": "Nate Paul bought this West Austin lakeshore property, part of an assemblage that houses a marina on Lake Travis, through a World Class-affiliated company in 2014.",
    "approx": false,
    "spread": false,
    "r": 6.84
   },
   "geometry": {
    "type": "Point",
    "coordinates": [
     -97.945283,
     30.423019
    ]
   }
  },
  {
   "type": "Feature",
   "properties": {
    "prop_id": "157832",
    "address": "17112 Rocky Ridge Rd.",
    "zip": "78734",
    "status": "Owned by Paul-affiliated entity",
    "val_2026": 266948,
    "owner": "WC PARADISE COVE MARINA LP",
    "np_entity": "WC PARADISE COVE MARINA LP",
    "deed_date": "2009-05-22",
    "prop_type": "Real property",
    "note": "Nate Paul bought this West Austin lakeshore property, part of an assemblage that houses a marina on Lake Travis, through a World Class-affiliated company in 2009.",
    "approx": false,
    "spread": false,
    "r": 6.55
   },
   "geometry": {
    "type": "Point",
    "coordinates": [
     -97.943929,
     30.421255
    ]
   }
  },
  {
   "type": "Feature",
   "properties": {
    "prop_id": "161714",
    "address": "Rocky Ridge Rd.",
    "zip": "78734",
    "status": "Owned by Paul-affiliated entity",
    "val_2026": 179098,
    "owner": "WC PARADISE COVE MARINA LP",
    "np_entity": "WC PARADISE COVE MARINA LP",
    "deed_date": "2009-05-22",
    "prop_type": "Real property",
    "note": "Nate Paul bought this West Austin lakeshore property, part of an assemblage that houses a marina on Lake Travis, through a World Class-affiliated company in 2009.",
    "approx": true,
    "spread": true,
    "r": 6.27
   },
   "geometry": {
    "type": "Point",
    "coordinates": [
     -97.934494,
     30.420841
    ]
   }
  },
  {
   "type": "Feature",
   "properties": {
    "prop_id": "767840",
    "address": "Rocky Ridge Rd.",
    "zip": "78734",
    "status": "Owned by Paul-affiliated entity",
    "val_2026": 136427,
    "owner": "ROCKY RIDGE RESIDENTIAL LLC",
    "np_entity": "ROCKY RIDGE RESIDENTIAL LLC",
    "deed_date": "2014-05-06",
    "prop_type": "Real property",
    "note": "Nate Paul bought this West Austin lakeshore property, part of an assemblage that houses a marina on Lake Travis, through a World Class-affiliated company in 2014.",
    "approx": true,
    "spread": true,
    "r": 6.11
   },
   "geometry": {
    "type": "Point",
    "coordinates": [
     -97.934494,
     30.420499
    ]
   }
  }
 ]
}
