{
  "type": "FeatureCollection",
  "features": [
    {
      "type": "Feature",
      "properties": {
        "name": "Sentinel Grove Technology Park (Project Jarvis)",
        "address": "Minute Maid Road and Orange Avenue in Fort Pierce",
        "status": "Withdrawn February 2026",
        "group": "Withdrawn, rejected or canceled",
        "cost": "$13.5 billion for the first 1,000 MW of data center capacity",
        "size": "1,218 acres, 15 million-square-foot at buildout",
        "developer": "Timberline Real Estate Partners",
        "owner": "Epic Estates 68 LLC",
        "description": "The developer withdrew the project following significant community opposition."
      },
      "geometry": {
        "type": "Point",
        "coordinates": [
          -80.55998746201061,
          27.448296745159134
        ]
      }
    },
    {
      "type": "Feature",
      "properties": {
        "name": "Central Park Commerce Center (Project Tango)",
        "address": "20125 State Road 80 at Southern Boulevard in Loxahatchee",
        "status": "Rejected July 2026",
        "group": "Withdrawn, rejected or canceled",
        "cost": "$2.6 billion",
        "size": "1 million square feet, plus 2.3 million square feet of warehouses and 216,000 square feet for utilities",
        "developer": "PBA Holdings",
        "owner": "PBA Holdings Inc and TPA Group",
        "description": "Palm Beach County commissioners rejected the proposal without prejudice last month, meaning the developer can reapply."
      },
      "geometry": {
        "type": "Point",
        "coordinates": [
          -80.36812090236502,
          26.71460893459502
        ]
      }
    },
    {
      "type": "Feature",
      "properties": {
        "name": "Silver Fox Data Center",
        "address": "13820 Silver Fox Road in Indiantown",
        "status": "Withdrawn April 2026",
        "group": "Withdrawn, rejected or canceled",
        "cost": "Multi-billions",
        "size": "2 million square feet",
        "developer": "Silver Fox 606 LLC, managed by Nelson Ferreira",
        "owner": "Silver Fox 606 LLC.",
        "description": "The project was withdrawn by developers in April after facing environmental scrutiny and community pushback."
      },
      "geometry": {
        "type": "Point",
        "coordinates": [
          -80.5265665023757,
          27.043223574071998
        ]
      }
    },
    {
      "type": "Feature",
      "properties": {
        "name": "Holder Industrial Park Data Center",
        "address": "County Road 491 and Tram Road in the Lecanto-Inverness area",
        "status": "Withdrawn June 2026",
        "group": "Withdrawn, rejected or canceled",
        "cost": "Unknown",
        "size": "1,400 acres",
        "developer": "Deltona Corporation",
        "owner": "Deltona Corporation",
        "description": "Plans were withdrawn by the developers after the Citrus County Planning and Development Commission denied a rezoning proposal."
      },
      "geometry": {
        "type": "Point",
        "coordinates": [
          -82.39114907544375,
          28.96915447222832
        ]
      }
    },
    {
      "type": "Feature",
      "properties": {
        "name": "Fort Meade Data Center Campus",
        "address": "County Road 700 at Highway 630 in Fort Meade",
        "status": "Approved",
        "group": "Approved or under construction",
        "cost": "$2.6 billion",
        "size": "4.4 million square feet",
        "developer": "Stonebridge, via Fort Meade DC LLC",
        "owner": "Florida Eco Park, LLC and Polk Industrial Park, LLC",
        "description": "The Fort Meade Data Center Campus is one of the only approved hyperscale data centers in Florida. It was approved but is facing legal challenges."
      },
      "geometry": {
        "type": "Point",
        "coordinates": [
          -81.81941421872816,
          27.784156519334783
        ]
      }
    },
    {
      "type": "Feature",
      "properties": {
        "name": "Okee-One Data Campus",
        "address": "7200 U.S. Highway 441 North in Okeechobee",
        "status": "Canceled",
        "group": "Withdrawn, rejected or canceled",
        "cost": "Unknown",
        "size": "205 acres",
        "developer": "Indian State River College",
        "owner": "Indian State River College",
        "description": "Project was a proposed by the college to attract technology investment but was canceled before development moved forward."
      },
      "geometry": {
        "type": "Point",
        "coordinates": [
          -80.82345365288634,
          27.30472744911373
        ]
      }
    },
    {
      "type": "Feature",
      "properties": {
        "name": "Project Swan",
        "address": "923 Wilkinson Road in Lakeland",
        "status": "Active proposal",
        "group": "Proposed",
        "cost": "Multi-millions",
        "size": "600,000 square feet",
        "developer": "Ryan Companies U.S. Inc.",
        "owner": "Unknown",
        "description": "This project is still in the early planning stages, but community pushback has stalled its progress."
      },
      "geometry": {
        "type": "Point",
        "coordinates": [
          -82.00536854664547,
          28.03020567546606
        ]
      }
    },
    {
      "type": "Feature",
      "properties": {
        "name": "MIA-1 Data Center",
        "address": "2925 Northwest 120th Terrace in Miami",
        "status": "Under construction",
        "group": "Approved or under construction",
        "cost": "$150 million",
        "size": "150,000 square feet",
        "developer": "Iron Mountain",
        "owner": "Iron Mountain",
        "description": "Under construction and slated for completion this year."
      },
      "geometry": {
        "type": "Point",
        "coordinates": [
          -80.24727247741171,
          25.88478066898211
        ]
      }
    },
    {
      "type": "Feature",
      "properties": {
        "name": "DeSoto County AI Campus",
        "address": "3800 Northeast Roan Street in Arcadia",
        "status": "Active proposal",
        "group": "Proposed",
        "cost": "Multi-billions",
        "size": "1,300 acres",
        "developer": "DCIP Group",
        "owner": "DeSoto County Industrial Park, LLC",
        "description": "The project has sparked significant local debate and contributed to a one-year moratorium on new data centers."
      },
      "geometry": {
        "type": "Point",
        "coordinates": [
          -81.810031748526,
          27.22799673660135
        ]
      }
    },
    {
      "type": "Feature",
      "properties": {
        "name": "Osceola County Hyperscale Data Center Campus",
        "address": "U.S. Highway 441 in Yeehaw Junction",
        "status": "Plans announced",
        "group": "Proposed",
        "cost": "Unknown",
        "size": "7 million square feet",
        "developer": "US Development",
        "owner": "Unknown",
        "description": "Plans to construct nine data center buildings on 434 acres were announced in 2024."
      },
      "geometry": {
        "type": "Point",
        "coordinates": [
          -80.90471495374163,
          27.700864471429053
        ]
      }
    },
    {
      "type": "Feature",
      "properties": {
        "name": "Atlas Compute Campus",
        "address": "Post Office Road in Fort Pierce",
        "status": "Plans announced",
        "group": "Proposed",
        "cost": "Undisclosed",
        "size": "22 acres",
        "developer": "Atlas Compute",
        "owner": "Fort Pierce No. 2 LLC or Fort Pierce No. 3 LLC",
        "description": "The project is in the preliminary stages with few details available."
      },
      "geometry": {
        "type": "Point",
        "coordinates": [
          -80.37615330744536,
          27.37900360178927
        ]
      }
    }
  ]
}
