{
  "type": "FeatureCollection",
  "summary": {
    "total": {
      "acres": "22.65",
      "sb_price": "$146,810,000",
      "sb_date": "2018-2019",
      "novak_price": "$57,877,000",
      "novak_date": "2025-2026",
      "loss": "-$88,933,000+ Est.",
      "loss_pct": null,
      "loan": "$30,475,000",
      "lender": "Hinsdale Bank & Trust"
    },
    "outparcels": {
      "acres": "4.65",
      "sb_price": "$42,110,000",
      "sb_date": "2018-2019",
      "novak_price": "$23,877,000",
      "novak_date": "2025-2026",
      "loss": "-$18,233,000",
      "loss_pct": 43.3,
      "loan": "$8,725,000",
      "lender": "Hinsdale Bank & Trust"
    }
  },
  "features": [
    {
      "type": "Feature",
      "properties": {
        "n": 1,
        "address": "1401 W. Willow St.",
        "acres": "18",
        "sb_price": "Part of $104.7M IL Steel",
        "sb_price_num": 120000000.0,
        "sb_date": "Feb 2018",
        "novak_price": "$34,000,000",
        "novak_price_num": 34000000.0,
        "novak_date": "Dec 2025",
        "loss": "Unallocated",
        "loss_num": null,
        "loss_pct": null,
        "loan": "$21,750,000",
        "loan_num": 21750000.0,
        "lender": "Hinsdale Bank & Trust",
        "mortgage_date": "03/19/2026",
        "pins": 9,
        "bbox": [
          -87.662987,
          41.912393,
          -87.658261,
          41.91589
        ],
        "sb_price_label": "Approx. $120M",
        "loss_label": "Over $70M",
        "badge_label": "Est. \u221272%",
        "own_scale": true
      },
      "geometry": {
        "type": "Point",
        "coordinates": [
          -87.660203,
          41.914459
        ]
      }
    },
    {
      "type": "Feature",
      "properties": {
        "n": 2,
        "address": "1623 N. Elston Ave.",
        "acres": "1.15",
        "sb_price": "$9.25M",
        "sb_price_num": 9250000.0,
        "sb_date": "Dec 2018",
        "novak_price": "$7,950,000",
        "novak_price_num": 7950000.0,
        "novak_date": "Sep 2026",
        "loss": "-$1,300,000",
        "loss_num": -1300000.0,
        "loss_pct": 14.1,
        "loan": "Pending / Unrecorded",
        "loan_num": null,
        "lender": "Pending / Unrecorded",
        "mortgage_date": "Pending / Unrecorded",
        "pins": 14,
        "bbox": [
          -87.662569,
          41.911101,
          -87.661301,
          41.911921
        ]
      },
      "geometry": {
        "type": "Point",
        "coordinates": [
          -87.661727,
          41.91161
        ]
      }
    },
    {
      "type": "Feature",
      "properties": {
        "n": 3,
        "address": "1650 N. Elston Ave.",
        "acres": "1.58",
        "sb_price": "$12.7M",
        "sb_price_num": 12700000.0,
        "sb_date": "Aug 2018",
        "novak_price": "$7,250,000",
        "novak_price_num": 7250000.0,
        "novak_date": "Dec 2025",
        "loss": "-$5,450,000",
        "loss_num": -5450000.0,
        "loss_pct": 42.9,
        "loan": "$5,075,000",
        "loan_num": 5075000.0,
        "lender": "Hinsdale Bank & Trust",
        "mortgage_date": "03/19/2026",
        "pins": 4,
        "bbox": [
          -87.664031,
          41.91112,
          -87.662743,
          41.912422
        ]
      },
      "geometry": {
        "type": "Point",
        "coordinates": [
          -87.663402,
          41.911785
        ]
      }
    },
    {
      "type": "Feature",
      "properties": {
        "n": 4,
        "address": "1685 N. Elston Ave. & Ada St.",
        "acres": "0.78",
        "sb_price": "$4.4M",
        "sb_price_num": 4400000.0,
        "sb_date": "Aug 2018",
        "novak_price": "$4,050,000",
        "novak_price_num": 4050000.0,
        "novak_date": "May 2026",
        "loss": "-$350,000",
        "loss_num": -350000.0,
        "loss_pct": 8.0,
        "loan": "$1,835,000",
        "loan_num": 1835000.0,
        "lender": "Hinsdale Bank & Trust",
        "mortgage_date": "07/01/2026",
        "pins": 2,
        "bbox": [
          -87.663746,
          41.912688,
          -87.662692,
          41.913352
        ]
      },
      "geometry": {
        "type": "Point",
        "coordinates": [
          -87.663388,
          41.912957
        ]
      }
    },
    {
      "type": "Feature",
      "properties": {
        "n": 5,
        "address": "1901-15 N. Elston / 1500 W. Cortland",
        "acres": "0.69",
        "sb_price": "$7.2M",
        "sb_price_num": 7200000.0,
        "sb_date": "2018-2019",
        "novak_price": "$2,627,000",
        "novak_price_num": 2627000.0,
        "novak_date": "Apr 2026",
        "loss": "-$4,533,000",
        "loss_num": -4533000.0,
        "loss_pct": 63.3,
        "loan": "$1,815,000",
        "loan_num": 1815000.0,
        "lender": "Hinsdale Bank & Trust",
        "mortgage_date": "07/01/2026",
        "pins": 2,
        "bbox": [
          -87.666634,
          41.916575,
          -87.665495,
          41.917082
        ]
      },
      "geometry": {
        "type": "Point",
        "coordinates": [
          -87.666313,
          41.916824
        ]
      }
    },
    {
      "type": "Feature",
      "properties": {
        "n": 6,
        "address": "1907 N. Mendell St.",
        "acres": "0.45",
        "sb_price": "$8.6M",
        "sb_price_num": 8600000.0,
        "sb_date": "Dec 2018",
        "novak_price": "$2,000,000",
        "novak_price_num": 2000000.0,
        "novak_date": "May 2026",
        "loss": "-$6,600,000",
        "loss_num": -6600000.0,
        "loss_pct": 76.7,
        "loan": "Pending / Unrecorded",
        "loan_num": null,
        "lender": "Pending / Unrecorded",
        "mortgage_date": "Pending / Unrecorded",
        "pins": 1,
        "bbox": [
          -87.665574,
          41.917043,
          -87.664745,
          41.91757
        ]
      },
      "geometry": {
        "type": "Point",
        "coordinates": [
          -87.665159,
          41.917288
        ]
      }
    }
  ]
}
