{"type":"FeatureCollection","features":[{"type":"Feature","properties":{"n":1,"address":"1401 W. Willow St."},"geometry":{"type":"MultiPolygon","coordinates":[[[[-87.66075329024454,41.913456044229704],[-87.66103759341301,41.9138397724457],[-87.66104067978503,41.91384448040419],[-87.66126413240856,41.91418520299593],[-87.66166533777069,41.91472670100135],[-87.66170735911352,41.91478706785872],[-87.66174542211158,41.91485000559701],[-87.66177937002321,41.91491525504159],[-87.66173777704543,41.91492634064192],[-87.66176159592749,41.91497994658209],[-87.6617825493314,41.91503473609595],[-87.66198786825893,41.915598585938234],[-87.66186088920661,41.91565067123673],[-87.66186781580245,41.91566075356032],[-87.66187060080142,41.91566330088521],[-87.66187293042732,41.91566627038458],[-87.6618747416202,41.915669581677946],[-87.66187598535339,41.915673145132885],[-87.66187662796067,41.91567686429129],[-87.66187665204748,41.91568063848037],[-87.66187605696183,41.915684365537714],[-87.66187485881191,41.91568794457671],[-87.66187309003011,41.91569127871742],[-87.66187079849502,41.915694277708965],[-87.66186804623555,41.91569686037255],[-87.66186490775179,41.915698956798806],[-87.66180257723991,41.91571681190872],[-87.66170881796516,41.91574651248489],[-87.66160899419496,41.9157852588455],[-87.66140878740929,41.91586874554394],[-87.66137221919647,41.915880755740744],[-87.66133436909624,41.91588774494159],[-87.66129592318839,41.9158895864586],[-87.66125757835243,41.91588624691199],[-87.66122002963587,41.91587778683516],[-87.66118395765552,41.91586435957745],[-87.66050988600237,41.91554771039104],[-87.66045700400821,41.91551897510873],[-87.65958081175211,41.91499559861086],[-87.65914938777023,41.91463169327658],[-87.6587289952255,41.914285336657564],[-87.65853494632663,41.91412544554174],[-87.65836443425229,41.913863906245],[-87.65826068541217,41.9137033413919],[-87.65826088079528,41.913703278737195],[-87.65861664681566,41.913568801819636],[-87.65878631536378,41.91350345829033],[-87.658782898265,41.91349859945391],[-87.65888636790424,41.91345754846833],[-87.65893334193551,41.913438607900176],[-87.66030899243832,41.9128800458162],[-87.66037186219499,41.91290523928257],[-87.66039974087661,41.91296302264217],[-87.66043194835581,41.91301850972012],[-87.66046829675095,41.91307137683378],[-87.66075329024454,41.913456044229704]],[[-87.66075329024454,41.913456044229704],[-87.6595880347454,41.91393342072915],[-87.65986242437,41.913821013701],[-87.66075329024454,41.913456044229704]],[[-87.65986242437,41.913821013701],[-87.66008216046875,41.91412243657619],[-87.6601490366825,41.9142141737677],[-87.65986242437,41.913821013701]]],[[[-87.66230073872096,41.91311063455097],[-87.66232899314106,41.913149163996536],[-87.66233094191698,41.91315182082204],[-87.66259356088587,41.913510203831905],[-87.6624305543565,41.91357599120319],[-87.6622675471509,41.913641723453274],[-87.66210453995635,41.913707510355344],[-87.66194160831711,41.91377324258199],[-87.66177860011429,41.91383897412838],[-87.66159928500788,41.913911305281346],[-87.66139339480303,41.91399435945469],[-87.66124104144794,41.913762042140206],[-87.66066882161476,41.91298967939516],[-87.66064737973473,41.912957126930756],[-87.66063056389739,41.91292196097034],[-87.66061868653946,41.912884834894236],[-87.66061196834119,41.91284643850157],[-87.66064660486956,41.91276926785586],[-87.6607438142323,41.91272946349875],[-87.66092114604164,41.91265684625466],[-87.66108224255576,41.91259094006344],[-87.66140443666548,41.91245901723631],[-87.66156553219832,41.912393109671505],[-87.66175801096567,41.912655871148516],[-87.66177213682609,41.91267510780385],[-87.66185272144757,41.912642155037844],[-87.66193330656903,41.912609146647256],[-87.66203574065192,41.91274898777434],[-87.66212412230061,41.91286953705604],[-87.66221243081206,41.912990085154185],[-87.66230073872096,41.91311063455097]]],[[[-87.66189413248536,41.913998212019685],[-87.66208173354019,41.91425721084387],[-87.66209047808418,41.91426927825665],[-87.66210621608171,41.91429099821305],[-87.66229345604852,41.91454955617924],[-87.66211449562134,41.914622878807265],[-87.66190179693157,41.914710024145],[-87.66150125960341,41.91415667031111],[-87.66151742305239,41.914150149229506],[-87.6617145951364,41.914070596935346],[-87.66189413248536,41.913998212019685]]],[[[-87.66258204729779,41.91463790509713],[-87.66286732459955,41.91502189717769],[-87.66295418481793,41.915239471458456],[-87.66297408436984,41.91528733790372],[-87.6629805783969,41.91530295754765],[-87.66296637327423,41.91531435464686],[-87.6629504200079,41.91532313944476],[-87.66293319381667,41.915329050258215],[-87.66291520783736,41.915331911014874],[-87.66283306762503,41.91532975512076],[-87.66275102303463,41.91533426594635],[-87.6627013104641,41.91535390961505],[-87.66265024428174,41.91536970386737],[-87.66259812207322,41.91538155666309],[-87.66254524757815,41.91538939893061],[-87.66237097837782,41.91540163606156],[-87.66237946997842,41.91543796026844],[-87.66225235597562,41.91549009941221],[-87.66206814359684,41.91499286745936],[-87.66204422614017,41.91493044807384],[-87.66201712177751,41.91486934506289],[-87.66241268182671,41.914707278348814],[-87.66258204729779,41.91463790509713]]],[[[-87.66298687028596,41.91335152409953],[-87.66292864890897,41.91337500410737],[-87.66292067818769,41.91337824996025],[-87.66275516472805,41.913445011766875],[-87.66266649180046,41.91332402220201],[-87.66287023078237,41.91324184230029],[-87.66289731132149,41.91323091373009],[-87.66292513529608,41.91326839770817],[-87.66298687028596,41.91335152409953]]]]}},{"type":"Feature","properties":{"n":2,"address":"1623 N. Elston Ave."},"geometry":{"type":"MultiPolygon","coordinates":[[[[-87.66159447676057,41.911861008783376],[-87.66155006982335,41.91180043080897],[-87.66150595432204,41.91174018451571],[-87.66146147432481,41.911679494937225],[-87.66141735749504,41.91161930348575],[-87.66137302378851,41.91155878075394],[-87.6613065228163,41.91146805081932],[-87.66130400188463,41.9114071697172],[-87.66130119418617,41.91133860309029],[-87.66171148258029,41.91133260624891],[-87.66180999831245,41.91129223781609],[-87.66181528648993,41.9112994586263],[-87.66185940346485,41.91135965130138],[-87.66190373658677,41.91142017315843],[-87.66194785465248,41.91148036511885],[-87.66199233407308,41.91154105313598],[-87.66203644989237,41.91160129993278],[-87.6620808586498,41.91166182284764],[-87.66212490323647,41.91172195873777],[-87.66163852193395,41.91192114554704],[-87.66159447676057,41.911861008783376]]],[[[-87.66234496758163,41.91116084294712],[-87.66238981890153,41.91122120299328],[-87.66243438007807,41.91128112362136],[-87.66247937735514,41.91134159493955],[-87.66252400953621,41.91140167991445],[-87.66256886084037,41.91146198568997],[-87.66212912016915,41.91164207276672],[-87.66208471287993,41.91158149430817],[-87.66204059610999,41.91152124752411],[-87.66199611665692,41.91146055952524],[-87.66195199798389,41.91140042246419],[-87.66190759136366,41.911339899509706],[-87.66186347434937,41.91127970753871],[-87.6623003351522,41.91110081346984],[-87.66234496758163,41.91116084294712]]]]}},{"type":"Feature","properties":{"n":3,"address":"1650 N. Elston Ave."},"geometry":{"type":"Polygon","coordinates":[[[-87.6628668156831,41.911489741119794],[-87.6628476878737,41.91146399831794],[-87.66280319758233,41.91140418872062],[-87.66275870977766,41.91134432492156],[-87.66274327507188,41.91132359816888],[-87.66285978822322,41.911276583130146],[-87.66324865622018,41.911119742562924],[-87.6632634265715,41.911140684910194],[-87.66330607018891,41.911201361710596],[-87.6633487150344,41.911261928732564],[-87.66339135938608,41.911322550619936],[-87.66343393091859,41.911383117181515],[-87.66346231385947,41.911423403416975],[-87.6634765754305,41.911443739037104],[-87.66356186468762,41.91156498338664],[-87.66360451002092,41.91162554962729],[-87.66364715485344,41.91168617141935],[-87.66368979976613,41.91174679319549],[-87.66373244475899,41.91180741495575],[-87.66377509040558,41.91186798181889],[-87.66386038079209,41.91198922525995],[-87.66390295320508,41.91204979164705],[-87.66398831754645,41.91217103542111],[-87.66403088928121,41.91223160175527],[-87.66355966798568,41.912421718637106],[-87.66351517821663,41.91236190864064],[-87.66342619821556,41.91224218088076],[-87.66338163395007,41.9121823161979],[-87.66333721797115,41.912122507933155],[-87.66329265445219,41.91206258764842],[-87.66324816574563,41.91200272335316],[-87.66320367527773,41.91194285971594],[-87.66315918490676,41.91188299468945],[-87.663114695874,41.91182318522366],[-87.66307020566832,41.91176332016262],[-87.66302564389422,41.91170345603821],[-87.66298115442095,41.911643536747405],[-87.66296622882479,41.91162347229909],[-87.66289217525494,41.9115239183358],[-87.6628668156831,41.911489741119794]]]}},{"type":"Feature","properties":{"n":4,"address":"1685 N. Elston Ave. & Ada St."},"geometry":{"type":"MultiPolygon","coordinates":[[[[-87.66289731132149,41.91323091373009],[-87.66287023078237,41.91324184230029],[-87.66269234174986,41.913002659211585],[-87.6627177248232,41.912992434268965],[-87.66281571955048,41.912952885899735],[-87.66297975619187,41.91288677467787],[-87.6632472058671,41.913246513307435],[-87.66298687028596,41.91335152409953],[-87.66292513529608,41.91326839770817],[-87.66289731132149,41.91323091373009]]],[[[-87.66311852192653,41.91298862725281],[-87.66302990287353,41.91286950503592],[-87.66348024710501,41.91268782918914],[-87.66356879269013,41.912807006891164],[-87.66365733918353,41.91292612895759],[-87.66374595798732,41.91304530626],[-87.66329568637767,41.91322698218694],[-87.66320706816917,41.91310780454505],[-87.66311852192653,41.91298862725281]]]]}},{"type":"Feature","properties":{"n":5,"address":"1901-15 N. Elston / 1500 W. Cortland"},"geometry":{"type":"MultiPolygon","coordinates":[[[[-87.6656222799755,41.91694892071334],[-87.66557785807383,41.91688916820694],[-87.66549451953665,41.916777048320434],[-87.66590458985578,41.91668245158986],[-87.66594691109468,41.91673939333587],[-87.66599133472354,41.91679909151289],[-87.66603568438344,41.91685884412694],[-87.66608003526186,41.91691848764739],[-87.66571098059806,41.91706826224511],[-87.66566670343578,41.91700861969868],[-87.6656222799755,41.91694892071334]]],[[[-87.66617286928927,41.91695854327485],[-87.66612844595329,41.91689879028645],[-87.66608409503583,41.91683914747031],[-87.66603974385369,41.91677944975043],[-87.66595843531837,41.91667008553709],[-87.66636887281872,41.91657538019557],[-87.66640909264648,41.91662951045359],[-87.66645351514366,41.916689263331435],[-87.66649779375125,41.916748904900764],[-87.66654221789564,41.91680860355436],[-87.6665864951704,41.91686830065136],[-87.66663091948641,41.91692799858458],[-87.66663381754232,41.916931967100176],[-87.66626446957456,41.917081797346064],[-87.66621721979234,41.91701824162394],[-87.66617286928927,41.91695854327485]]]]}},{"type":"Feature","properties":{"n":6,"address":"1907 N. Mendell St."},"geometry":{"type":"Polygon","coordinates":[[[-87.66474482943258,41.91731988465152],[-87.66541473764867,41.91704277372296],[-87.66557351467316,41.91725637556321],[-87.66510612447335,41.91744937485779],[-87.66481379163217,41.91757012068994],[-87.66474482943258,41.91731988465152]]]}}]}
