{"type":"FeatureCollection","features":[{"type":"Feature","properties":{"name":"Texas","state_abbr":"TX"},"geometry":{"type":"MultiPolygon","coordinates":[[[[-96.83003,28.11184],[-96.82705,28.11242],[-96.81657,28.11962],[-96.81042,28.12603],[-96.81094,28.13638],[-96.81684,28.15805],[-96.82031,28.16349],[-96.82286,28.16748],[-96.81866,28.17228],[-96.81644,28.17481],[-96.79196,28.18869],[-96.73304,28.19091],[-96.70384,28.19825],[-96.69742,28.20296],[-96.70266,28.21121],[-96.70331,28.21645],[-96.68682,28.21841],[-96.66246,28.22731],[-96.66063,28.22888],[-96.66312,28.23321],[-96.65186,28.25127],[-96.60799,28.27707],[-96.60812,28.28008],[-96.61153,28.28139],[-96.61048,28.28309],[-96.59293,28.29697],[-96.58102,28.30221],[-96.55326,28.30234],[-96.54698,28.30561],[-96.54213,28.31596],[-96.52891,28.3225],[-96.47627,28.33075],[-96.451,28.33704],[-96.43411,28.34476],[-96.41892,28.35485],[-96.41525,28.36283],[-96.41722,28.36715],[-96.4129,28.36951],[-96.40321,28.37148],[-96.40124,28.36689],[-96.39785,28.34351],[-96.4137,28.32734],[-96.4391,28.31905],[-96.54777,28.2708],[-96.62153,28.2297],[-96.69467,28.18212],[-96.75814,28.13687],[-96.84962,28.06494],[-96.85345,28.06134],[-96.92905,27.99044],[-96.967,27.95053],[-97.00144,27.91144],[-97.03166,27.86998],[-97.0418,27.85293],[-97.04541,27.83745],[-97.04598,27.835],[-97.0854,27.79324],[-97.11628,27.7526],[-97.16668,27.67658],[-97.20187,27.61486],[-97.22191,27.57632],[-97.27609,27.47215],[-97.30447,27.40773],[-97.32652,27.34761],[-97.34744,27.27796],[-97.3504,27.2681],[-97.3634,27.21037],[-97.37094,27.16117],[-97.377,27.10102],[-97.37913,27.048],[-97.37836,26.99288],[-97.37073,26.90971],[-97.36473,26.87169],[-97.35141,26.8086],[-97.33303,26.73648],[-97.30069,26.63537],[-97.28789,26.60034],[-97.27512,26.56542],[-97.26939,26.55405],[-97.22984,26.43357],[-97.22373,26.41149],[-97.19464,26.30651],[-97.18584,26.2671],[-97.17327,26.19231],[-97.16147,26.08871],[-97.15427,26.06684],[-97.16146,26.06764],[-97.16984,26.07785],[-97.17178,26.10252],[-97.17953,26.1462],[-97.17875,26.1771],[-97.18398,26.21429],[-97.19446,26.27164],[-97.21488,26.35361],[-97.22693,26.38556],[-97.24029,26.40598],[-97.24085,26.4115],[-97.24317,26.43426],[-97.24762,26.45626],[-97.25417,26.47119],[-97.26255,26.48297],[-97.27643,26.52173],[-97.2924,26.52801],[-97.31073,26.55656],[-97.30811,26.57122],[-97.30863,26.57672],[-97.31701,26.59767],[-97.31846,26.60027],[-97.32487,26.61181],[-97.33849,26.64743],[-97.33639,26.66602],[-97.34582,26.70059],[-97.36311,26.71054],[-97.37044,26.7239],[-97.37096,26.7362],[-97.36756,26.74039],[-97.36415,26.75899],[-97.36465,26.76712],[-97.36887,26.7747],[-97.37044,26.78151],[-97.36834,26.79565],[-97.37306,26.80848],[-97.38746,26.82079],[-97.38353,26.87552],[-97.38563,26.88888],[-97.39165,26.90197],[-97.38955,26.94597],[-97.39034,27.05229],[-97.38982,27.06721],[-97.38641,27.08319],[-97.38746,27.09052],[-97.3906,27.09419],[-97.39008,27.15651],[-97.37751,27.19946],[-97.37986,27.20286],[-97.38667,27.2047],[-97.38222,27.22905],[-97.37489,27.25026],[-97.37332,27.27645],[-97.37286,27.27807],[-97.36703,27.29871],[-97.36468,27.30264],[-97.35996,27.30473],[-97.35761,27.30787],[-97.36232,27.32673],[-97.36677,27.33328],[-97.3618,27.35999],[-97.34661,27.39036],[-97.33613,27.40241],[-97.33116,27.41236],[-97.32958,27.41812],[-97.33089,27.42546],[-97.32985,27.43436],[-97.31728,27.46369],[-97.29371,27.49721],[-97.28297,27.52156],[-97.26647,27.54251],[-97.25783,27.55639],[-97.26176,27.56346],[-97.26045,27.56739],[-97.25207,27.57865],[-97.24788,27.58137],[-97.24762,27.58153],[-97.23688,27.59829],[-97.24107,27.60248],[-97.24264,27.60746],[-97.23138,27.63234],[-97.22195,27.63286],[-97.21908,27.63024],[-97.2141,27.63155],[-97.20074,27.65014],[-97.19734,27.66455],[-97.1976,27.67843],[-97.20347,27.68453],[-97.20309,27.688],[-97.19001,27.69283],[-97.17063,27.72033],[-97.16618,27.73237],[-97.1612,27.73407],[-97.15361,27.73329],[-97.14732,27.73538],[-97.13082,27.75162],[-97.12794,27.75581],[-97.12768,27.76],[-97.10333,27.78907],[-97.10228,27.79823],[-97.09887,27.80845],[-97.09285,27.81447],[-97.09259,27.81918],[-97.09887,27.82285],[-97.12611,27.81971],[-97.1303,27.82049],[-97.13449,27.82521],[-97.13239,27.8273],[-97.05671,27.84229],[-97.05582,27.8434],[-97.04323,27.85912],[-97.01363,27.90678],[-97.01796,27.91149],[-97.01638,27.91726],[-96.98574,27.95405],[-96.97789,27.97644],[-96.9788,27.97827],[-96.9809,27.97827],[-96.98601,27.97618],[-96.98666,27.98076],[-96.97828,28.00171],[-96.96781,28.02004],[-96.96676,28.02037],[-96.96519,28.0133],[-96.96257,28.01238],[-96.95262,28.01644],[-96.94699,28.02652],[-96.93245,28.03543],[-96.92643,28.04341],[-96.92957,28.0514],[-96.92709,28.05729],[-96.906,28.07615],[-96.89095,28.0768],[-96.88623,28.0844],[-96.88833,28.08662],[-96.88911,28.09945],[-96.88689,28.11713],[-96.87942,28.1314],[-96.87497,28.13324],[-96.87078,28.13127],[-96.86463,28.1263],[-96.85716,28.11556],[-96.84538,28.10888],[-96.83003,28.11184]]],[[[-100.00038,34.74646],[-100.00038,34.74636],[-100.00038,34.56051],[-99.99785,34.56148],[-99.95457,34.5782],[-99.94572,34.57927],[-99.92321,34.57455],[-99.88484,34.54695],[-99.8744,34.5371],[-99.87236,34.5321],[-99.86492,34.52302],[-99.8464,34.50505],[-99.79368,34.45389],[-99.76723,34.4305],[-99.69497,34.37833],[-99.66395,34.37368],[-99.61679,34.37539],[-99.58006,34.41665],[-99.57437,34.41828],[-99.51538,34.41433],[-99.49988,34.40961],[-99.47416,34.39805],[-99.45348,34.38876],[-99.44076,34.37412],[-99.40717,34.37261],[-99.39863,34.37583],[-99.35671,34.44214],[-99.26132,34.4035],[-99.21142,34.3379],[-99.2114,34.33769],[-99.20972,34.32494],[-99.2116,34.31397],[-99.21165,34.29223],[-99.19089,34.21525],[-99.15711,34.20741],[-99.1192,34.20175],[-99.06034,34.20476],[-98.96674,34.20119],[-98.95253,34.19562],[-98.92004,34.18291],[-98.85842,34.15273],[-98.76557,34.13638],[-98.70018,34.136],[-98.66582,34.15162],[-98.65235,34.16103],[-98.63757,34.16228],[-98.61011,34.16104],[-98.59979,34.16057],[-98.57736,34.1491],[-98.55372,34.13366],[-98.50418,34.07237],[-98.47507,34.06427],[-98.43377,34.09612],[-98.40049,34.12178],[-98.39844,34.12846],[-98.38322,34.14781],[-98.36402,34.15711],[-98.32545,34.15102],[-98.30021,34.13458],[-98.2939,34.13302],[-98.20007,34.11678],[-98.16912,34.11417],[-98.10626,34.0337],[-98.0882,34.00548],[-98.08526,34.00326],[-98.04112,33.99346],[-98.01949,33.9938],[-97.98352,34.00156],[-97.94573,33.98984],[-97.9534,33.93644],[-97.97786,33.88993],[-97.97781,33.88989],[-97.96671,33.88195],[-97.87739,33.85024],[-97.86576,33.84939],[-97.83433,33.85767],[-97.78532,33.8907],[-97.73372,33.93639],[-97.70048,33.97225],[-97.69311,33.9837],[-97.68802,33.98661],[-97.67177,33.99137],[-97.65621,33.98949],[-97.60909,33.96809],[-97.5896,33.95355],[-97.58883,33.95188],[-97.59712,33.91787],[-97.59629,33.91377],[-97.58744,33.90248],[-97.58104,33.9004],[-97.56105,33.89801],[-97.555,33.89728],[-97.54553,33.9004],[-97.51917,33.91364],[-97.50096,33.91964],[-97.4865,33.91699],[-97.48407,33.91568],[-97.45807,33.90163],[-97.45095,33.8914],[-97.45147,33.87093],[-97.45762,33.85513],[-97.46149,33.84956],[-97.46286,33.84177],[-97.45907,33.83458],[-97.45306,33.82854],[-97.44419,33.82377],[-97.42649,33.8194],[-97.37294,33.81945],[-97.31084,33.87246],[-97.22652,33.91464],[-97.21092,33.91606],[-97.18546,33.9007],[-97.18085,33.8952],[-97.16663,33.84731],[-97.16682,33.8404],[-97.17163,33.83534],[-97.18137,33.83138],[-97.19468,33.83119],[-97.1997,33.82732],[-97.20499,33.81887],[-97.20483,33.79991],[-97.17219,33.73754],[-97.16315,33.72932],[-97.1628,33.72913],[-97.15126,33.72261],[-97.13753,33.71866],[-97.1211,33.71717],[-97.10718,33.72112],[-97.09715,33.72781],[-97.09241,33.73321],[-97.04797,33.81793],[-97.00613,33.86188],[-96.98557,33.88652],[-96.97287,33.9357],[-96.94461,33.94899],[-96.93451,33.95375],[-96.92211,33.95958],[-96.9163,33.9578],[-96.90739,33.95002],[-96.89944,33.93373],[-96.89573,33.89641],[-96.88301,33.86802],[-96.86644,33.85315],[-96.85609,33.84749],[-96.76159,33.82441],[-96.71242,33.83163],[-96.70727,33.8354],[-96.70095,33.84075],[-96.69463,33.84999],[-96.68928,33.86166],[-96.68539,33.87285],[-96.68247,33.88306],[-96.67858,33.89279],[-96.67226,33.89959],[-96.65864,33.90008],[-96.64697,33.89522],[-96.63335,33.88938],[-96.62216,33.88598],[-96.61536,33.88111],[-96.61349,33.87832],[-96.61147,33.87528],[-96.61296,33.86765],[-96.61584,33.85339],[-96.61487,33.84123],[-96.61293,33.83394],[-96.50027,33.77258],[-96.44804,33.78103],[-96.43645,33.78005],[-96.42336,33.77636],[-96.37847,33.72665],[-96.36959,33.71681],[-96.30468,33.7459],[-96.22986,33.74832],[-96.22052,33.74739],[-96.1999,33.75212],[-96.1817,33.7585],[-96.17006,33.76917],[-96.1641,33.78426],[-96.15672,33.81332],[-96.14807,33.8378],[-96.09753,33.84754],[-95.94993,33.85745],[-95.84633,33.84114],[-95.82468,33.83773],[-95.76362,33.84795],[-95.75716,33.86729],[-95.59968,33.93425],[-95.56702,33.9327],[-95.55941,33.93018],[-95.54914,33.90795],[-95.54948,33.90131],[-95.55233,33.89442],[-95.55209,33.88842],[-95.54833,33.88274],[-95.54435,33.88011],[-95.44575,33.86885],[-95.40779,33.86631],[-95.33976,33.86875],[-95.31047,33.87148],[-95.28757,33.87362],[-95.26081,33.88765],[-95.25554,33.89205],[-95.24992,33.90202],[-95.2482,33.91233],[-95.24981,33.92224],[-95.25362,33.92971],[-95.25291,33.93365],[-95.23111,33.96036],[-95.22639,33.96195],[-95.21936,33.96157],[-95.15598,33.94403],[-95.12957,33.93672],[-95.06725,33.91735],[-95.06346,33.91404],[-95.06228,33.90362],[-95.03945,33.86062],[-94.8693,33.74587],[-94.82247,33.73272],[-94.7606,33.72705],[-94.7461,33.70302],[-94.73513,33.69127],[-94.66096,33.66032],[-94.52838,33.61599],[-94.52406,33.61577],[-94.49068,33.62559],[-94.48761,33.62854],[-94.48587,33.63787],[-94.47837,33.62085],[-94.47096,33.60594],[-94.46434,33.59882],[-94.40933,33.56826],[-94.35595,33.54318],[-94.2578,33.58251],[-94.25266,33.58614],[-94.1818,33.59322],[-94.08524,33.57555],[-94.06685,33.56891],[-94.04345,33.55225],[-94.04343,33.55143],[-94.04337,33.54232],[-94.04301,33.49304],[-94.04328,33.49103],[-94.04319,33.47032],[-94.04299,33.43582],[-94.04299,33.43102],[-94.04289,33.42023],[-94.04305,33.37772],[-94.04287,33.37117],[-94.04313,33.35876],[-94.04307,33.3521],[-94.04307,33.34735],[-94.04307,33.3305],[-94.04299,33.27124],[-94.04299,33.27123],[-94.04305,33.2609],[-94.043,33.25013],[-94.04273,33.24182],[-94.04288,33.21522],[-94.04289,33.20267],[-94.04287,33.19978],[-94.04318,33.14348],[-94.04308,33.13816],[-94.04301,33.13389],[-94.04287,33.09273],[-94.04304,33.07948],[-94.04296,33.01922],[-94.04309,32.95559],[-94.04307,32.9379],[-94.04309,32.91002],[-94.04288,32.89891],[-94.04286,32.89277],[-94.04289,32.88109],[-94.04289,32.88097],[-94.04303,32.88045],[-94.04278,32.87149],[-94.04303,32.79748],[-94.04275,32.78697],[-94.04283,32.78528],[-94.04294,32.78056],[-94.04303,32.77686],[-94.04295,32.76799],[-94.04315,32.69303],[-94.04315,32.69303],[-94.04291,32.65513],[-94.04278,32.64347],[-94.04282,32.6403],[-94.04293,32.62201],[-94.04293,32.61826],[-94.04292,32.61014],[-94.04308,32.56426],[-94.04314,32.5595],[-94.04308,32.51361],[-94.04288,32.50514],[-94.04291,32.49285],[-94.04309,32.48656],[-94.04307,32.4843],[-94.04296,32.48026],[-94.043,32.478],[-94.0429,32.47291],[-94.04287,32.47135],[-94.0429,32.47039],[-94.04291,32.43989],[-94.04299,32.43551],[-94.0429,32.40066],[-94.04292,32.39992],[-94.0429,32.39228],[-94.04276,32.37333],[-94.04274,32.36356],[-94.04273,32.2697],[-94.04273,32.26962],[-94.04266,32.21815],[-94.04262,32.196],[-94.04257,32.16689],[-94.04254,32.16683],[-94.04259,32.1581],[-94.04268,32.13796],[-94.04234,32.11991],[-94.0427,32.05601],[-94.04272,31.99927],[-94.01563,31.97986],[-93.97538,31.92366],[-93.93214,31.89367],[-93.92029,31.88865],[-93.88919,31.85682],[-93.87823,31.84428],[-93.84003,31.8006],[-93.81248,31.71525],[-93.81706,31.67169],[-93.82629,31.6149],[-93.83492,31.58621],[-93.83492,31.58621],[-93.81858,31.55483],[-93.79809,31.53404],[-93.72961,31.48792],[-93.69587,31.40939],[-93.67018,31.38718],[-93.64081,31.37255],[-93.67168,31.29959],[-93.64441,31.27711],[-93.62083,31.2713],[-93.6144,31.26087],[-93.60816,31.22783],[-93.60724,31.20481],[-93.60232,31.18174],[-93.59971,31.17646],[-93.59883,31.17468],[-93.5885,31.16558],[-93.57922,31.16742],[-93.55265,31.18558],[-93.55254,31.1856],[-93.54893,31.1866],[-93.5351,31.18561],[-93.53174,31.18082],[-93.52764,31.07451],[-93.54035,31.00813],[-93.53094,30.92453],[-93.55458,30.87747],[-93.55497,30.87668],[-93.55862,30.86942],[-93.55867,30.86883],[-93.56329,30.8185],[-93.5784,30.80205],[-93.72784,30.57407],[-93.74004,30.53877],[-93.71012,30.5064],[-93.69783,30.44384],[-93.6983,30.43866],[-93.70266,30.42995],[-93.7417,30.40301],[-93.75144,30.39629],[-93.75765,30.39042],[-93.76582,30.33332],[-93.7359,30.29944],[-93.72359,30.29495],[-93.72057,30.29596],[-93.71622,30.24432],[-93.71201,30.1943],[-93.69525,30.1476],[-93.69568,30.13573],[-93.7121,30.06735],[-93.72159,30.05194],[-93.72248,30.0509],[-93.75204,30.0164],[-93.75663,30.01416],[-93.78943,29.98781],[-93.8408,29.91442],[-93.89068,29.84316],[-93.89847,29.77158],[-93.89225,29.76524],[-93.83797,29.69062],[-93.85287,29.67589],[-93.86698,29.67309],[-93.88999,29.67401],[-93.931,29.67961],[-94.00141,29.68149],[-94.05651,29.67116],[-94.13258,29.64622],[-94.35416,29.56146],[-94.37087,29.55507],[-94.50081,29.50537],[-94.59485,29.4679],[-94.63108,29.45146],[-94.67039,29.43078],[-94.69416,29.41563],[-94.70847,29.40305],[-94.72396,29.38327],[-94.73105,29.36914],[-94.74483,29.36916],[-94.76149,29.36188],[-94.77869,29.36148],[-94.78236,29.36427],[-94.78313,29.37564],[-94.76685,29.39349],[-94.7541,29.401],[-94.72382,29.42654],[-94.70637,29.4368],[-94.68639,29.46651],[-94.68154,29.47139],[-94.6724,29.47684],[-94.66585,29.4784],[-94.65674,29.47803],[-94.64595,29.47377],[-94.62822,29.47599],[-94.60856,29.48334],[-94.59421,29.49213],[-94.59544,29.50767],[-94.59141,29.51386],[-94.58027,29.52529],[-94.56667,29.53199],[-94.55399,29.52956],[-94.54699,29.52438],[-94.53235,29.5178],[-94.51104,29.51965],[-94.49502,29.52503],[-94.50343,29.54325],[-94.50949,29.54259],[-94.51109,29.54297],[-94.52242,29.54567],[-94.52374,29.54599],[-94.52634,29.55263],[-94.53202,29.55838],[-94.54111,29.56756],[-94.54253,29.569],[-94.54639,29.57205],[-94.55399,29.57388],[-94.57001,29.57223],[-94.57059,29.57188],[-94.57087,29.57171],[-94.57821,29.56728],[-94.59352,29.56132],[-94.61015,29.55695],[-94.61803,29.55487],[-94.62182,29.55388],[-94.62195,29.55384],[-94.62589,29.55281],[-94.68271,29.53983],[-94.68935,29.53831],[-94.69163,29.53779],[-94.71828,29.53355],[-94.7407,29.52586],[-94.75551,29.52478],[-94.75769,29.52462],[-94.75779,29.52463],[-94.75788,29.52463],[-94.76725,29.52552],[-94.76868,29.52566],[-94.76942,29.52599],[-94.76957,29.52606],[-94.77084,29.52662],[-94.77457,29.52827],[-94.7748,29.52837],[-94.77967,29.53053],[-94.77971,29.53055],[-94.77983,29.5306],[-94.78094,29.53109],[-94.7833,29.53531],[-94.78403,29.53664],[-94.78651,29.54107],[-94.78665,29.54132],[-94.78954,29.54649],[-94.7906,29.5484],[-94.77944,29.54947],[-94.77105,29.54844],[-94.75524,29.56278],[-94.73463,29.58405],[-94.70874,29.62523],[-94.69315,29.69445],[-94.69243,29.70361],[-94.69532,29.72305],[-94.72462,29.77477],[-94.73527,29.78543],[-94.74092,29.78708],[-94.77151,29.77389],[-94.79224,29.76743],[-94.81609,29.75671],[-94.85111,29.72137],[-94.86501,29.69534],[-94.86744,29.67877],[-94.87255,29.67125],[-94.89311,29.66134],[-94.91541,29.65661],[-94.92132,29.65818],[-94.93115,29.67387],[-94.93417,29.67868],[-94.93609,29.6927],[-94.94268,29.69778],[-94.96596,29.70033],[-94.97267,29.68487],[-94.98892,29.6722],[-95.0054,29.65937],[-95.00565,29.65899],[-95.00638,29.65787],[-95.00762,29.65598],[-95.01103,29.6508],[-95.01168,29.6498],[-95.01272,29.64709],[-95.01378,29.64432],[-95.01564,29.63946],[-95.0156,29.63929],[-95.01362,29.62979],[-95.0135,29.62919],[-95.01166,29.62777],[-95.00078,29.61933],[-95.00046,29.61908],[-94.99948,29.61832],[-94.99908,29.61801],[-94.98887,29.6101],[-94.98483,29.60436],[-94.98294,29.60167],[-94.98271,29.60134],[-94.98286,29.6011],[-94.98292,29.60099],[-94.98899,29.59116],[-95.00767,29.57426],[-95.01614,29.55934],[-95.01635,29.55897],[-95.01663,29.55849],[-95.01667,29.55839],[-95.01825,29.55488],[-95.0182,29.55462],[-95.01819,29.55458],[-95.01689,29.5483],[-95.01516,29.53999],[-95.01338,29.53782],[-94.99958,29.52109],[-94.98192,29.51114],[-94.95844,29.50501],[-94.93488,29.50108],[-94.93348,29.50085],[-94.93304,29.50077],[-94.9099,29.49691],[-94.90946,29.49684],[-94.91339,29.48725],[-94.92591,29.46905],[-94.93086,29.4505],[-94.9194,29.44803],[-94.8908,29.43343],[-94.8873,29.41513],[-94.88654,29.36639],[-94.89423,29.338],[-94.89399,29.30817],[-94.88654,29.29783],[-94.87595,29.29302],[-94.86513,29.29398],[-94.84973,29.29734],[-94.82495,29.306],[-94.82255,29.32188],[-94.82231,29.34425],[-94.8107,29.35344],[-94.7849,29.33554],[-94.77999,29.33494],[-94.77706,29.33681],[-94.74553,29.33423],[-94.74495,29.33641],[-94.73132,29.33807],[-94.72253,29.33145],[-94.73108,29.33183],[-94.76969,29.30494],[-94.7861,29.29074],[-94.8037,29.27924],[-95.02622,29.14806],[-95.08177,29.11122],[-95.11048,29.08822],[-95.11927,29.07784],[-95.12252,29.074],[-95.12513,29.06732],[-95.19139,29.02309],[-95.23892,28.98864],[-95.27227,28.96155],[-95.29715,28.93407],[-95.3097,28.92826],[-95.35345,28.89814],[-95.37698,28.87616],[-95.38239,28.86635],[-95.41617,28.85948],[-95.43959,28.85902],[-95.48677,28.83629],[-95.50704,28.82475],[-95.56814,28.79],[-95.8125,28.66494],[-95.88403,28.6331],[-96.00068,28.58824],[-96.07787,28.55663],[-96.19441,28.50222],[-96.22038,28.49197],[-96.24475,28.47506],[-96.27039,28.46193],[-96.30321,28.44187],[-96.32156,28.42515],[-96.32882,28.42366],[-96.34162,28.41733],[-96.37112,28.39766],[-96.3721,28.39388],[-96.37072,28.38767],[-96.37862,28.38391],[-96.37937,28.38609],[-96.38186,28.39328],[-96.37596,28.40168],[-96.37414,28.40427],[-96.33512,28.4378],[-96.26834,28.47799],[-96.22383,28.49507],[-96.21898,28.50038],[-96.21505,28.50968],[-96.14545,28.54474],[-96.10474,28.5595],[-96.04621,28.58698],[-96.03298,28.58902],[-96.00753,28.5997],[-95.98616,28.60632],[-95.98209,28.61446],[-95.98565,28.62108],[-95.98311,28.64194],[-95.97853,28.65059],[-95.98607,28.65547],[-95.99634,28.65874],[-96.00295,28.65619],[-96.00652,28.64805],[-96.03349,28.65263],[-96.04774,28.64907],[-96.07216,28.63533],[-96.09914,28.62464],[-96.1485,28.61141],[-96.18718,28.5936],[-96.19837,28.58698],[-96.22178,28.58036],[-96.22891,28.58087],[-96.234,28.59665],[-96.234,28.60174],[-96.22229,28.60734],[-96.21415,28.61344],[-96.21262,28.6226],[-96.23094,28.64143],[-96.20855,28.6623],[-96.21466,28.66535],[-96.19227,28.68774],[-96.19125,28.69436],[-96.19583,28.69894],[-96.20245,28.70098],[-96.2228,28.69843],[-96.23145,28.69639],[-96.2569,28.68469],[-96.26351,28.68367],[-96.2686,28.68876],[-96.28794,28.68316],[-96.30423,28.67146],[-96.30524,28.66026],[-96.30372,28.645],[-96.32292,28.64186],[-96.32865,28.64092],[-96.37344,28.62667],[-96.37649,28.62006],[-96.38464,28.61599],[-96.47369,28.57324],[-96.48794,28.56968],[-96.48285,28.58036],[-96.48031,28.59665],[-96.48591,28.60785],[-96.49049,28.6109],[-96.51084,28.61497],[-96.51033,28.61752],[-96.49761,28.62515],[-96.49659,28.63075],[-96.49965,28.63584],[-96.50626,28.63838],[-96.54545,28.6455],[-96.55512,28.64601],[-96.56326,28.64449],[-96.57293,28.6679],[-96.57039,28.674],[-96.55919,28.68724],[-96.5597,28.69131],[-96.56123,28.69639],[-96.56682,28.69792],[-96.57514,28.70284],[-96.57773,28.70436],[-96.57802,28.70454],[-96.57964,28.71231],[-96.57967,28.71245],[-96.58056,28.71675],[-96.58409,28.7228],[-96.58413,28.72286],[-96.5842,28.72288],[-96.59165,28.72484],[-96.5938,28.7254],[-96.60492,28.72221],[-96.63442,28.71374],[-96.63491,28.7136],[-96.64587,28.71046],[-96.64876,28.70963],[-96.65553,28.70417],[-96.66453,28.6969],[-96.65792,28.68774],[-96.63502,28.66891],[-96.634,28.65467],[-96.62789,28.65009],[-96.62331,28.64958],[-96.61568,28.64449],[-96.61059,28.63889],[-96.61059,28.63634],[-96.61975,28.62769],[-96.6228,28.6221],[-96.6111,28.58596],[-96.60805,28.58342],[-96.57395,28.58444],[-96.5653,28.5824],[-96.56428,28.57629],[-96.56123,28.5707],[-96.53629,28.5595],[-96.52611,28.55797],[-96.52204,28.55441],[-96.51441,28.53507],[-96.50575,28.52591],[-96.45028,28.4908],[-96.41975,28.46739],[-96.41059,28.45924],[-96.40245,28.44907],[-96.40397,28.44245],[-96.46148,28.42159],[-96.48184,28.40784],[-96.50474,28.39767],[-96.52051,28.3941],[-96.54291,28.38545],[-96.5597,28.37782],[-96.57039,28.36866],[-96.59176,28.35746],[-96.60041,28.35441],[-96.65079,28.34678],[-96.67268,28.33558],[-96.68845,28.34728],[-96.69456,28.34728],[-96.69812,28.3427],[-96.70525,28.34881],[-96.70016,28.36968],[-96.70576,28.40021],[-96.71034,28.40683],[-96.72255,28.40886],[-96.74901,28.40886],[-96.76224,28.41192],[-96.76696,28.41074],[-96.76835,28.41039],[-96.77221,28.40807],[-96.77599,28.40581],[-96.7808,28.39842],[-96.79023,28.38393],[-96.79455,28.36569],[-96.7948,28.36467],[-96.79481,28.36459],[-96.79481,28.36452],[-96.79481,28.3645],[-96.79436,28.35086],[-96.79431,28.34932],[-96.79402,28.34725],[-96.79393,28.34661],[-96.79384,28.34596],[-96.79376,28.34545],[-96.79254,28.3367],[-96.79074,28.32387],[-96.79116,28.3191],[-96.79176,28.31217],[-96.80601,28.2969],[-96.80957,28.29029],[-96.80601,28.28214],[-96.7993,28.27272],[-96.78718,28.25568],[-96.78718,28.25008],[-96.80041,28.22413],[-96.81004,28.21709],[-96.84214,28.19359],[-96.87268,28.17629],[-96.89812,28.15288],[-96.91034,28.14728],[-96.93476,28.12387],[-96.96276,28.12336],[-97.00041,28.13761],[-97.00754,28.13609],[-97.02739,28.12438],[-97.02891,28.11726],[-97.02281,28.10759],[-97.02382,28.10352],[-97.03197,28.09385],[-97.03553,28.08469],[-97.03553,28.074],[-97.03146,28.05364],[-97.02586,28.04194],[-97.03095,28.03329],[-97.04062,28.02871],[-97.04876,28.02209],[-97.06199,27.99614],[-97.07573,27.98698],[-97.12153,27.92336],[-97.12917,27.9198],[-97.1348,27.90247],[-97.13578,27.89945],[-97.13662,27.89896],[-97.14444,27.89436],[-97.15512,27.88061],[-97.18345,27.83323],[-97.18464,27.83125],[-97.18671,27.82545],[-97.18687,27.825],[-97.18718,27.82413],[-97.18887,27.82377],[-97.19287,27.82293],[-97.1937,27.82275],[-97.19685,27.82209],[-97.20913,27.82209],[-97.20958,27.82209],[-97.21123,27.82239],[-97.21974,27.82394],[-97.22077,27.82413],[-97.22221,27.82465],[-97.22296,27.82492],[-97.22518,27.82572],[-97.22544,27.82615],[-97.22581,27.82675],[-97.22601,27.82708],[-97.22732,27.8292],[-97.22732,27.83094],[-97.22732,27.83126],[-97.22732,27.8329],[-97.22732,27.83295],[-97.22651,27.83831],[-97.22839,27.84366],[-97.23451,27.84906],[-97.24113,27.85771],[-97.24139,27.85895],[-97.24265,27.86484],[-97.24292,27.86521],[-97.2508,27.87604],[-97.25639,27.8779],[-97.2583,27.87854],[-97.26301,27.88011],[-97.27225,27.88143],[-97.2737,27.88163],[-97.27663,27.88114],[-97.28547,27.87967],[-97.29507,27.87807],[-97.30146,27.87591],[-97.31789,27.87034],[-97.3251,27.86789],[-97.32749,27.86641],[-97.35461,27.84957],[-97.36021,27.85059],[-97.36055,27.85036],[-97.36125,27.84989],[-97.37904,27.83787],[-97.39176,27.81395],[-97.39329,27.7829],[-97.38617,27.76662],[-97.36835,27.74168],[-97.34698,27.7254],[-97.31645,27.71268],[-97.25396,27.6967],[-97.25996,27.6796],[-97.26606,27.67858],[-97.2966,27.61395],[-97.29863,27.60479],[-97.29762,27.59868],[-97.29405,27.5941],[-97.3022,27.58596],[-97.32153,27.5712],[-97.32512,27.56093],[-97.3368,27.52743],[-97.34342,27.51776],[-97.34749,27.50301],[-97.35054,27.47858],[-97.35919,27.45822],[-97.36581,27.45059],[-97.37192,27.42514],[-97.36988,27.41242],[-97.37293,27.40122],[-97.37955,27.39003],[-97.3994,27.34474],[-97.40194,27.33557],[-97.405,27.32998],[-97.41314,27.32133],[-97.42026,27.31725],[-97.43044,27.31369],[-97.4508,27.31369],[-97.48286,27.29791],[-97.5083,27.27501],[-97.53222,27.27858],[-97.54444,27.28418],[-97.54698,27.29079],[-97.5368,27.28926],[-97.52662,27.29181],[-97.52459,27.29791],[-97.51747,27.30504],[-97.50474,27.30504],[-97.49813,27.3086],[-97.50271,27.32234],[-97.49914,27.32794],[-97.48388,27.33863],[-97.48388,27.35135],[-97.48693,27.35898],[-97.50169,27.36662],[-97.51441,27.36153],[-97.52052,27.35288],[-97.53833,27.33557],[-97.5709,27.31573],[-97.58413,27.30962],[-97.60907,27.28519],[-97.62179,27.28723],[-97.63146,27.28621],[-97.63655,27.28214],[-97.63668,27.28173],[-97.64011,27.27094],[-97.63909,27.25313],[-97.63502,27.24702],[-97.62892,27.24295],[-97.59736,27.24244],[-97.58261,27.24041],[-97.57395,27.23888],[-97.56123,27.23278],[-97.54291,27.22921],[-97.52001,27.23125],[-97.50983,27.23532],[-97.50321,27.2399],[-97.50016,27.24448],[-97.48515,27.25084],[-97.46708,27.25364],[-97.45843,27.25949],[-97.45029,27.26255],[-97.42408,27.26407],[-97.4223,27.25771],[-97.43477,27.20224],[-97.44495,27.14473],[-97.44367,27.11623],[-97.45232,27.11522],[-97.45589,27.11038],[-97.45665,27.0997],[-97.46174,27.09562],[-97.47548,27.09842],[-97.48057,27.10249],[-97.49151,27.10122],[-97.49584,27.0941],[-97.49329,27.07807],[-97.47751,27.06611],[-97.47904,27.0628],[-97.48226,27.06194],[-97.48693,27.05771],[-97.48769,27.05364],[-97.48668,27.03481],[-97.47751,27.03252],[-97.47395,27.02921],[-97.47344,27.02285],[-97.47853,26.99919],[-97.48057,26.99766],[-97.48413,27.00046],[-97.5368,26.99969],[-97.54927,26.99588],[-97.55538,26.99028],[-97.55105,26.98087],[-97.54953,26.96534],[-97.55232,26.95211],[-97.55538,26.94728],[-97.55538,26.93888],[-97.54087,26.90631],[-97.54011,26.90097],[-97.548,26.89511],[-97.55232,26.8885],[-97.55232,26.86763],[-97.55843,26.86433],[-97.56327,26.84219],[-97.55258,26.82794],[-97.54775,26.82463],[-97.53757,26.82488],[-97.50983,26.80351],[-97.48439,26.76356],[-97.47802,26.7572],[-97.47166,26.75873],[-97.46861,26.74092],[-97.46734,26.71013],[-97.44495,26.63353],[-97.44571,26.60936],[-97.44121,26.5999],[-97.42815,26.57247],[-97.41696,26.55364],[-97.4223,26.5203],[-97.42586,26.51674],[-97.4307,26.50656],[-97.4307,26.4946],[-97.42637,26.48443],[-97.42917,26.47806],[-97.43553,26.47018],[-97.44138,26.46661],[-97.44138,26.45542],[-97.43757,26.44982],[-97.42586,26.446],[-97.42103,26.44677],[-97.41721,26.44982],[-97.41161,26.44728],[-97.41288,26.43303],[-97.42179,26.41725],[-97.4195,26.41318],[-97.40601,26.40911],[-97.39813,26.41089],[-97.39431,26.41445],[-97.39507,26.41725],[-97.38249,26.41133],[-97.37777,26.40911],[-97.36963,26.3946],[-97.37446,26.38086],[-97.38896,26.36585],[-97.39202,26.33939],[-97.391,26.33226],[-97.38795,26.33048],[-97.37624,26.33633],[-97.37217,26.33989],[-97.36937,26.34855],[-97.35818,26.35644],[-97.34342,26.35923],[-97.33527,26.35567],[-97.33044,26.35058],[-97.3368,26.33175],[-97.35283,26.31852],[-97.35436,26.31394],[-97.34698,26.3114],[-97.34749,26.29282],[-97.34393,26.26738],[-97.34113,26.2656],[-97.33197,26.2656],[-97.32281,26.27196],[-97.31187,26.27374],[-97.30703,26.25313],[-97.30805,26.24905],[-97.32128,26.23608],[-97.32128,26.2287],[-97.30449,26.20249],[-97.2966,26.20071],[-97.29482,26.19231],[-97.29609,26.18239],[-97.30678,26.15949],[-97.2966,26.14244],[-97.28536,26.12838],[-97.28209,26.1203],[-97.28311,26.11776],[-97.29405,26.11394],[-97.29507,26.10834],[-97.2798,26.09206],[-97.2709,26.08646],[-97.24698,26.08035],[-97.20805,26.07959],[-97.19965,26.07704],[-97.19507,26.04193],[-97.20499,26.03023],[-97.21492,26.03073],[-97.22484,26.02743],[-97.22611,26.02437],[-97.21924,25.99613],[-97.21695,25.99384],[-97.20856,25.9918],[-97.19583,25.99307],[-97.17446,26.00007],[-97.16721,26.00707],[-97.16276,26.01458],[-97.16263,26.02348],[-97.17204,26.04473],[-97.17866,26.04549],[-97.18273,26.05313],[-97.16498,26.06388],[-97.15201,26.06211],[-97.15321,26.03891],[-97.15192,26.01765],[-97.14557,25.97113],[-97.17263,25.96288],[-97.22803,25.95894],[-97.27138,25.95183],[-97.34828,25.93114],[-97.36235,25.91572],[-97.36705,25.90302],[-97.36672,25.88507],[-97.40836,25.85646],[-97.49686,25.88006],[-97.51116,25.88746],[-97.58257,25.93786],[-97.6681,26.02252],[-97.67157,26.03395],[-97.86306,26.06127],[-97.8887,26.06493],[-98.00831,26.06115],[-98.01188,26.05661],[-98.04452,26.04375],[-98.1326,26.05751],[-98.24166,26.07454],[-98.26451,26.08551],[-98.38669,26.15787],[-98.43882,26.21202],[-98.46617,26.22324],[-98.58581,26.2574],[-98.58672,26.25746],[-98.62333,26.25959],[-98.6329,26.25035],[-98.70568,26.27748],[-98.75116,26.33131],[-98.80735,26.36942],[-98.82237,26.3709],[-98.86135,26.36599],[-99.04757,26.40692],[-99.10572,26.43872],[-99.168,26.5578],[-99.17206,26.57086],[-99.20895,26.68949],[-99.24244,26.78826],[-99.26861,26.84321],[-99.32182,26.90685],[-99.37915,26.93449],[-99.44652,27.02301],[-99.45232,27.06267],[-99.45104,27.06677],[-99.44659,27.07059],[-99.42988,27.09432],[-99.42635,27.17626],[-99.44155,27.24992],[-99.45239,27.26405],[-99.45395,27.26467],[-99.46331,27.26844],[-99.47088,27.26544],[-99.49468,27.2776],[-99.52965,27.30605],[-99.53644,27.31254],[-99.53777,27.31607],[-99.50696,27.35642],[-99.49283,27.39049],[-99.4877,27.40992],[-99.48022,27.4858],[-99.51938,27.57357],[-99.54164,27.60577],[-99.60062,27.64131],[-99.62348,27.64414],[-99.62629,27.64245],[-99.62712,27.63841],[-99.66617,27.63832],[-99.84346,27.77456],[-99.87617,27.80628],[-99.90149,27.86416],[-99.90439,27.87528],[-99.89583,27.90418],[-99.92205,27.92212],[-99.99145,27.99456],[-100.05705,28.09566],[-100.08087,28.13719],[-100.08339,28.14403],[-100.08814,28.1475],[-100.14414,28.16824],[-100.17132,28.17623],[-100.20245,28.19055],[-100.20946,28.19687],[-100.25779,28.24034],[-100.29139,28.2754],[-100.34699,28.40723],[-100.33381,28.49925],[-100.33852,28.50183],[-100.38696,28.51402],[-100.40506,28.53578],[-100.42986,28.59644],[-100.44666,28.60866],[-100.50035,28.66196],[-100.51005,28.69072],[-100.512,28.70535],[-100.5067,28.71674],[-100.50761,28.7406],[-100.53544,28.8052],[-100.5468,28.82537],[-100.58985,28.86162],[-100.64009,28.91583],[-100.65151,28.94343],[-100.6481,28.98386],[-100.64589,28.98642],[-100.66406,29.07321],[-100.66836,29.08397],[-100.67466,29.09978],[-100.79366,29.24215],[-100.79767,29.24694],[-100.95404,29.3476],[-100.99561,29.3634],[-101.03764,29.41468],[-101.04336,29.42988],[-101.06015,29.45866],[-101.08715,29.46941],[-101.1375,29.47354],[-101.23528,29.52485],[-101.24732,29.61848],[-101.25038,29.62417],[-101.31413,29.65905],[-101.34374,29.66205],[-101.40393,29.75759],[-101.45501,29.77019],[-101.62596,29.77106],[-101.63513,29.75868],[-101.64642,29.7543],[-101.76184,29.77719],[-101.78635,29.78205],[-101.88366,29.79619],[-101.94491,29.80147],[-102.04054,29.79006],[-102.05004,29.78507],[-102.11608,29.79253],[-102.26247,29.85376],[-102.28225,29.8636],[-102.29733,29.87519],[-102.32082,29.87519],[-102.32339,29.87519],[-102.36465,29.84362],[-102.38668,29.76148],[-102.40442,29.7651],[-102.43406,29.7767],[-102.48682,29.78673],[-102.50074,29.78145],[-102.55491,29.74897],[-102.61288,29.74818],[-102.66519,29.73742],[-102.68974,29.72235],[-102.69835,29.69559],[-102.74549,29.59297],[-102.78181,29.54245],[-102.80869,29.52232],[-102.83194,29.43794],[-102.83332,29.40898],[-102.87581,29.35372],[-102.89589,29.28478],[-102.88631,29.24568],[-102.88114,29.24602],[-102.87135,29.24162],[-102.86685,29.22501],[-102.87802,29.2147],[-102.95089,29.17684],[-102.99569,29.16122],[-103.10443,29.03359],[-103.11533,28.98527],[-103.15665,28.97283],[-103.16387,28.9721],[-103.2819,28.99009],[-103.38351,29.02411],[-103.47104,29.07537],[-103.47052,29.08511],[-103.50324,29.11911],[-103.52547,29.13774],[-103.55868,29.15496],[-103.61007,29.16573],[-103.62707,29.16334],[-103.71487,29.18414],[-103.76781,29.22495],[-103.79201,29.2627],[-103.7927,29.26293],[-103.8383,29.2783],[-103.92498,29.29391],[-103.96308,29.2984],[-104.02549,29.3144],[-104.14369,29.38328],[-104.16751,29.40293],[-104.21341,29.46207],[-104.23585,29.49674],[-104.26416,29.514],[-104.29073,29.51933],[-104.3216,29.52792],[-104.39435,29.56054],[-104.51551,29.64149],[-104.53857,29.6774],[-104.54977,29.71609],[-104.54912,29.72881],[-104.56606,29.77138],[-104.63327,29.87048],[-104.6673,29.9104],[-104.67493,29.91111],[-104.67988,29.92095],[-104.69359,30.01908],[-104.68579,30.09266],[-104.6873,30.17946],[-104.70892,30.23583],[-104.76163,30.30115],[-104.78102,30.31456],[-104.85952,30.39041],[-104.87281,30.50014],[-104.92978,30.59924],[-104.97207,30.61026],[-104.98537,30.62379],[-105.04441,30.68389],[-105.12933,30.75014],[-105.21123,30.79961],[-105.25003,30.79907],[-105.26548,30.80254],[-105.39463,30.85892],[-105.41183,30.89337],[-105.55679,30.98947],[-105.57765,31.01981],[-105.57976,31.03659],[-105.58532,31.05749],[-105.60333,31.08263],[-105.64883,31.1159],[-105.70949,31.13638],[-105.75052,31.16494],[-105.79372,31.20171],[-105.86935,31.28863],[-105.90032,31.30001],[-105.92313,31.31209],[-105.98103,31.37512],[-105.99766,31.38649],[-106.00693,31.39283],[-106.09939,31.41476],[-106.13278,31.42537],[-106.20285,31.46407],[-106.20602,31.46665],[-106.20752,31.46787],[-106.2092,31.46923],[-106.21292,31.47341],[-106.21854,31.47972],[-106.25406,31.54751],[-106.35694,31.70221],[-106.38104,31.73211],[-106.41794,31.75201],[-106.43674,31.75687],[-106.47251,31.7518],[-106.52854,31.78391],[-106.52854,31.78441],[-106.528,31.78694],[-106.52762,31.78912],[-106.52774,31.78976],[-106.52794,31.79051],[-106.53051,31.7921],[-106.53248,31.79191],[-106.533,31.79183],[-106.53304,31.79191],[-106.53474,31.79611],[-106.53515,31.79709],[-106.53534,31.79751],[-106.53584,31.79861],[-106.5421,31.80215],[-106.54214,31.80211],[-106.54471,31.80429],[-106.54534,31.80501],[-106.56344,31.81261],[-106.56684,31.81331],[-106.60524,31.8459],[-106.60585,31.84631],[-106.61464,31.84649],[-106.62186,31.85285],[-106.62576,31.85628],[-106.62781,31.86059],[-106.61614,31.94844],[-106.6147,31.956],[-106.5991,32.00073],[-106.59864,32.00075],[-106.59533,32.00078],[-106.58797,32.00075],[-106.56606,32.00076],[-106.56514,32.00074],[-106.41107,32.00133],[-106.3943,32.00148],[-106.37717,32.00149],[-106.31331,32.00151],[-106.20592,32.00176],[-106.2007,32.00178],[-106.18184,32.00205],[-106.09976,32.00217],[-105.998,32.00233],[-105.9006,32.0021],[-105.88616,32.00197],[-105.42928,32.00058],[-105.42858,32.0006],[-105.42705,32.00064],[-105.3904,32.00061],[-105.15399,32.0005],[-105.15031,32.0005],[-105.14824,32.00048],[-105.13292,32.00052],[-105.13138,32.00052],[-105.11804,32.00048],[-105.0786,32.00053],[-105.07705,32.00058],[-104.91827,32.0005],[-104.84776,32.00048],[-104.64353,32.00044],[-104.64092,32.0004],[-104.53194,32.00031],[-104.53176,32.00012],[-104.02452,32.00001],[-103.98018,32.00012],[-103.72285,32.00022],[-103.3265,32.00037],[-103.27852,32.00042],[-103.27038,32.00033],[-103.26771,32.00032],[-103.26763,32.00048],[-103.21564,32.00051],[-103.0887,32.00045],[-103.08588,32.00046],[-103.06442,32.00052],[-103.06434,32.08705],[-103.06435,32.12304],[-103.06442,32.14501],[-103.0647,32.52219],[-103.06476,32.58798],[-103.06479,32.6004],[-103.06476,32.60186],[-103.06481,32.62454],[-103.06463,32.64642],[-103.06486,32.68265],[-103.0648,32.69076],[-103.0648,32.70869],[-103.06483,32.72663],[-103.06481,32.7773],[-103.0647,32.7836],[-103.06471,32.78459],[-103.0647,32.82753],[-103.06467,32.82847],[-103.06489,32.84936],[-103.06492,32.85726],[-103.06481,32.8577],[-103.06486,32.86835],[-103.0647,32.87935],[-103.06457,32.90001],[-103.06466,32.9591],[-103.06468,32.96437],[-103.06463,32.9999],[-103.06445,33.01029],[-103.06398,33.03869],[-103.06391,33.04205],[-103.0601,33.21923],[-103.05786,33.31523],[-103.05749,33.32948],[-103.05666,33.38842],[-103.05666,33.38844],[-103.05261,33.5706],[-103.05166,33.62949],[-103.05136,33.64195],[-103.05154,33.65049],[-103.05109,33.65819],[-103.05053,33.67241],[-103.05015,33.70197],[-103.0491,33.74627],[-103.04735,33.82467],[-103.04691,33.8503],[-103.04564,33.90154],[-103.0457,33.9063],[-103.04489,33.94562],[-103.04395,33.97463],[-103.04362,34.00363],[-103.04353,34.01801],[-103.04355,34.03271],[-103.04375,34.03729],[-103.04377,34.04154],[-103.04372,34.04232],[-103.04377,34.04355],[-103.04374,34.04999],[-103.04369,34.06308],[-103.04352,34.07938],[-103.04357,34.08795],[-103.04364,34.2569],[-103.04372,34.28944],[-103.04394,34.30259],[-103.04398,34.31275],[-103.04398,34.31276],[-103.04395,34.37956],[-103.04394,34.37966],[-103.04392,34.38092],[-103.04369,34.38358],[-103.04363,34.38469],[-103.04361,34.38497],[-103.04361,34.38868],[-103.04361,34.39044],[-103.04358,34.39372],[-103.04361,34.39711],[-103.04358,34.40068],[-103.04354,34.40546],[-103.04358,34.45566],[-103.04359,34.45966],[-103.04359,34.45977],[-103.04359,34.46266],[-103.04307,34.61978],[-103.04283,34.67119],[-103.04277,34.74736],[-103.04277,34.79222],[-103.04278,34.85024],[-103.04252,34.89955],[-103.04252,34.9541],[-103.04252,35.1356],[-103.0426,35.14277],[-103.04271,35.14473],[-103.04257,35.15932],[-103.04239,35.17857],[-103.04234,35.18192],[-103.04237,35.18279],[-103.04238,35.18315],[-103.04238,35.18316],[-103.0425,35.21186],[-103.04155,35.62249],[-103.04136,35.73927],[-103.04082,36.05523],[-103.04167,36.31753],[-103.04175,36.31827],[-103.04167,36.47851],[-103.00243,36.5004],[-102.16246,36.50033],[-102.03234,36.50007],[-101.82657,36.49965],[-101.8265,36.49954],[-101.78811,36.49968],[-101.78336,36.49971],[-101.78199,36.49972],[-101.78061,36.49973],[-101.77944,36.49973],[-101.70931,36.49972],[-101.69868,36.49951],[-101.65371,36.49957],[-101.64997,36.49957],[-101.62391,36.49953],[-101.08516,36.49924],[-101.05242,36.49956],[-101.04533,36.49954],[-100.97709,36.49959],[-100.95415,36.4996],[-100.93606,36.4996],[-100.91851,36.49962],[-100.88417,36.49968],[-100.88408,36.49968],[-100.85966,36.49969],[-100.85084,36.4997],[-100.82424,36.49962],[-100.82422,36.49962],[-100.80619,36.49967],[-100.80617,36.49963],[-100.80291,36.49962],[-100.80289,36.49962],[-100.76181,36.49962],[-100.76181,36.49958],[-100.72436,36.49958],[-100.72436,36.49956],[-100.70863,36.49955],[-100.70863,36.49952],[-100.65776,36.49948],[-100.65776,36.4995],[-100.64834,36.4995],[-100.64834,36.49946],[-100.59261,36.49947],[-100.59256,36.49947],[-100.59255,36.49943],[-100.58354,36.49948],[-100.58338,36.49944],[-100.57811,36.49946],[-100.57811,36.49944],[-100.54614,36.49934],[-100.53122,36.49934],[-100.53122,36.49929],[-100.53048,36.49924],[-100.53031,36.49936],[-100.52223,36.49929],[-100.44106,36.49949],[-100.44106,36.49946],[-100.43396,36.49946],[-100.42133,36.49945],[-100.4213,36.49949],[-100.41363,36.49944],[-100.41355,36.49947],[-100.37863,36.49952],[-100.37859,36.49945],[-100.35185,36.49949],[-100.35184,36.49947],[-100.33446,36.49942],[-100.33444,36.49944],[-100.32415,36.49968],[-100.31124,36.49963],[-100.31102,36.49969],[-100.31064,36.49964],[-100.18122,36.49963],[-100.09002,36.49963],[-100.00376,36.4997],[-100.00041,36.4997],[-100.0004,36.05568],[-100.0004,35.88095],[-100.00039,35.61912],[-100.00039,35.42236],[-100.00038,35.1827],[-100.00038,35.03039],[-100.00038,34.74646]]]]}}]}