{
  "type": "FeatureCollection",
  "features": [
    {
      "type": "Feature",
      "properties": {
        "n": 1,
        "project": "Ella Miami Beach",
        "address": "6940 Abbot Avenue",
        "developer": "Constellation Group, The Boschetti Group and Vietmar",
        "description": "This rental-friendly condo topped off in March. It has 103 residences starting $550,000, according to one of the developers. Completion is slated for 2027.",
        "story": ""
      },
      "geometry": {
        "type": "Point",
        "coordinates": [
          -80.122474204399,
          25.855184045461687
        ]
      }
    },
    {
      "type": "Feature",
      "properties": {
        "n": 2,
        "project": "Palma Miami Beach Residences",
        "address": "600 71st Street",
        "developer": "Lefferts",
        "description": "Palma Miami Beach Residences is a 14-story, 121-residence condo tower. It has been 75 percent sold, and completion is slated for late next year, according to the developer.",
        "story": ""
      },
      "geometry": {
        "type": "Point",
        "coordinates": [
          -80.12423106207025,
          25.85623843744558
        ]
      }
    },
    {
      "type": "Feature",
      "properties": {
        "n": 3,
        "project": "72 Carlyle",
        "address": "600 72nd Street",
        "developer": "Lefferts",
        "description": "72 Carlyle is a 20-story residential tower overlooking Miami Beach. It offers one, two and three-bedroom residences, as well as penthouses. Prices start at $1.1 million, according to a price list from Miami Condo Investments.",
        "story": ""
      },
      "geometry": {
        "type": "Point",
        "coordinates": [
          -80.1244961331424,
          25.857088535848412
        ]
      }
    },
    {
      "type": "Feature",
      "properties": {
        "n": 4,
        "project": "Ocean Terrace Residences Miami Beach",
        "address": "740 Ocean Terrace",
        "developer": "Witkoff Group in partnership with Ocean Terrace Holdings",
        "description": "Ocean Terrace Residences comprises two towers with 350 feet of ocean frontage. Sales launched last year, and the development is expected to be completed in 2029.",
        "story": ""
      },
      "geometry": {
        "type": "Point",
        "coordinates": [
          -80.12112205706607,
          25.868103160378503
        ]
      }
    },
    {
      "type": "Feature",
      "properties": {
        "n": 5,
        "project": "Deauville Hotel site redevelopment",
        "address": "6701 Collins Avenue",
        "developer": "Terra in collaboration with the Meruelo family",
        "description": "Terra, in collaboration with the Meruelo family, is redeveloping the Deauville Hotel site with a reinterpreted hotel tower and modern residences, Terra said. The property is expected to generate $16 million annually for the North Beach Community Redevelopment Agency, according to the developer.",
        "story": ""
      },
      "geometry": {
        "type": "Point",
        "coordinates": [
          -80.1199045466345,
          25.850868358017937
        ]
      }
    },
    {
      "type": "Feature",
      "properties": {
        "n": 6,
        "project": "NoBe Parc Miami Beach",
        "address": "7140 Abbott Avenue",
        "developer": "Robert Finvarb Companies",
        "description": "NoBe Parc Miami Beach is a 14-story, 232-unit development with residences ranging from studios to two-bedroom units. The short-term-rental-friendly project launched sales in May.",
        "story": ""
      },
      "geometry": {
        "type": "Point",
        "coordinates": [
          -80.12257038896226,
          25.85713682630105
        ]
      }
    },
    {
      "type": "Feature",
      "properties": {
        "n": 7,
        "project": "7200 Collins",
        "address": "7200 Collins Avenue",
        "developer": "Northlink Capital",
        "description": "Northlink Capital is developing 7200 Collins, a 222-unit, Revuelta-designed residential tower across the street from the ocean. Sales launched last year and completion is expected next year, according to Miami Condo Investments.",
        "story": ""
      },
      "geometry": {
        "type": "Point",
        "coordinates": [
          -80.12072146383052,
          25.857433680495472
        ]
      }
    }
  ]
}
