{
  "type": "FeatureCollection",
  "features": [
    {
      "type": "Feature",
      "properties": {
        "n": 1,
        "hotel": "Hilton Curio at CityPlace West Palm Beach",
        "center": "Palm Beach County Convention Center",
        "address": "900 South Rosemary Avenue, West Palm Beach",
        "developer": "Related Ross",
        "description": "18-story, 400-room hotel on 1.8-acre site near the Hilton West Palm Beach",
        "cost": "$290 million",
        "financing": "Developer funded (equity and debt)",
        "status": "Proposed, Approved by West Palm Beach commission on first hearing"
      },
      "geometry": {
        "type": "Point",
        "coordinates": [
          -80.056247,
          26.704183
        ]
      }
    },
    {
      "type": "Feature",
      "properties": {
        "n": 2,
        "hotel": "Grand Hyatt Miami Beach",
        "center": "Miami Beach Convention Center",
        "address": "1901 Convention Center Drive, Miami Beach",
        "developer": "Terra and Turnberry",
        "description": "17-story, 800-room hotel with 110,000 square feet of meeting and ballroom space, 17,000 square feet of ground-floor retail, an 8,000-square-foot lawn atop the fifth-floor rooftop amenity deck, two swimming pools, a fitness center with a spa treatment room, restaurant space, lobby lounge and bar. Hotel to be connected to the Miami Beach Convention Center by a climate-controlled skybridge.",
        "cost": "$467 million",
        "financing": "$392 million construction loan from Tyko Capital; $75 million grant funding approved by Miami-Dade County through revenue bonds issued by the Public Finance Authority",
        "status": "Under construction, topped off in July"
      },
      "geometry": {
        "type": "Point",
        "coordinates": [
          -80.133786,
          25.794756
        ]
      }
    },
    {
      "type": "Feature",
      "properties": {
        "n": 3,
        "hotel": "Omni Fort Lauderdale Hotel",
        "center": "Broward County Convention Center",
        "address": "1850 Southeast 17th Street, Fort Lauderdale",
        "developer": "Matthews Southwest",
        "description": "29-story, 801-room hotel with 120,000 square feet of meeting and event space, a spa and fitness center, restaurants and pool deck",
        "cost": "$669.5 million",
        "financing": "$389.5 million in revenue bonds issued by Broward County (total actual debt obligation/proceeds after market premiums added); $280 million from Broward County's general fund",
        "status": "Completed in 2025"
      },
      "geometry": {
        "type": "Point",
        "coordinates": [
          -80.122618,
          26.099726
        ]
      }
    }
  ]
}
